{
    "type": "FeatureCollection",
    "features": [
        {
  "type": "Feature",
  "properties": {
    "habitat": "fwsf"
  },
  "geometry": {
    "type": "Polygon",
    "coordinates": [
      [
        [
          103.8127043,
          1.3992457
        ],
        [
          103.8116682,
          1.4000451
        ],
        [
          103.8105898,
          1.400324
        ],
        [
          103.8092016,
          1.3997319
        ],
        [
          103.8100353,
          1.398208
        ],
        [
          103.8075963,
          1.3941948
        ],
        [
          103.8039812,
          1.3936808
        ],
        [
          103.8027906,
          1.3918668
        ],
        [
          103.8060058,
          1.392085
        ],
        [
          103.809005,
          1.3947586
        ],
        [
          103.810914,
          1.3968299
        ],
        [
          103.8116904,
          1.3959112
        ],
        [
          103.8079436,
          1.3891212
        ],
        [
          103.8048901,
          1.3853193
        ],
        [
          103.8031966,
          1.3805907
        ],
        [
          103.8068812,
          1.3844226
        ],
        [
          103.8115433,
          1.3877998
        ],
        [
          103.8143039,
          1.3959864
        ],
        [
          103.8127043,
          1.3992457
        ]
      ]
    ]
  }
},
{
  "type": "Feature",
  "properties": {
    "habitat": "fwsf"
  },
  "geometry": {
    "type": "Polygon",
    "coordinates": [
      [
        [
          103.8079403,
          1.3506113
        ],
        [
          103.8073218,
          1.3516248
        ],
        [
          103.806851,
          1.3511907
        ],
        [
          103.8071547,
          1.3505845
        ],
        [
          103.8060635,
          1.3503835
        ],
        [
          103.8050179,
          1.3514346
        ],
        [
          103.8035278,
          1.3516657
        ],
        [
          103.8022651,
          1.3507591
        ],
        [
          103.8033404,
          1.3496247
        ],
        [
          103.8041529,
          1.3492153
        ],
        [
          103.8047399,
          1.3498369
        ],
        [
          103.8055221,
          1.3496777
        ],
        [
          103.8075626,
          1.3500497
        ],
        [
          103.8079403,
          1.3506113
        ]
      ]
    ]
  }
}
    ]
}