{
  "type": "FeatureCollection",
  "features": [
    {
      "type": "Feature",
      "properties": {
        "habitat": "marsh"
      },
      "geometry": {
        "type": "Polygon",
        "coordinates": [
          [
            [
              103.9477657,
              1.3649659
            ],
            [
              103.9463195,
              1.3633289
            ],
            [
              103.946161,
              1.3627522
            ],
            [
              103.9466037,
              1.3626705
            ],
            [
              103.9492742,
              1.3622017
            ],
            [
              103.9501007,
              1.3647444
            ],
            [
              103.9488679,
              1.3651275
            ],
            [
              103.9477657,
              1.3649659
            ]
          ]
        ]
      }
    },
    {
      "type": "Feature",
      "properties": {
        "habitat": "marsh"
      },
      "geometry": {
        "type": "Polygon",
        "coordinates": [
          [
            [
              103.8078121,
              1.350567
            ],
            [
              103.8090146,
              1.3499973
            ],
            [
              103.8096778,
              1.3495683
            ],
            [
              103.8103195,
              1.3497277
            ],
            [
              103.8106713,
              1.3499551
            ],
            [
              103.8114752,
              1.348862
            ],
            [
              103.8114669,
              1.3477219
            ],
            [
              103.8076602,
              1.3496354
            ],
            [
              103.8078121,
              1.350567
            ]
          ]
        ]
      }
    },
    {
      "type": "Feature",
      "properties": {
        "habitat": "marsh"
      },
      "geometry": {
        "type": "Polygon",
        "coordinates": [
          [
            [
              103.86415,
              1.278785
            ],
            [
              103.864038,
              1.278361
            ],
            [
              103.864199,
              1.277728
            ],
            [
              103.864739,
              1.27839
            ],
            [
              103.86415,
              1.278785
            ]
          ]
        ]
      }
    },
    {
      "type": "Feature",
      "properties": {
        "habitat": "marsh"
      },
      "geometry": {
        "type": "Polygon",
        "coordinates": [
          [
            [
              103.877841,
              1.287761
            ],
            [
              103.878139,
              1.28734
            ],
            [
              103.878493,
              1.286553
            ],
            [
              103.878669,
              1.285494
            ],
            [
              103.878588,
              1.284611
            ],
            [
              103.879199,
              1.284787
            ],
            [
              103.878968,
              1.28605
            ],
            [
              103.878791,
              1.287069
            ],
            [
              103.878112,
              1.287924
            ],
            [
              103.877841,
              1.287761
            ]
          ]
        ]
      }
    },
    {
      "type": "Feature",
      "properties": {
        "habitat": "marsh"
      },
      "geometry": {
        "type": "Polygon",
        "coordinates": [
          [
            [
              103.87627,
              1.28921
            ],
            [
              103.87663,
              1.28885
            ],
            [
              103.877013,
              1.289136
            ],
            [
              103.876609,
              1.289805
            ],
            [
              103.876174,
              1.291227
            ],
            [
              103.875824,
              1.291206
            ],
            [
              103.875877,
              1.289847
            ],
            [
              103.87627,
              1.28921
            ]
          ]
        ]
      }
    },
    {
      "type": "Feature",
      "properties": {
        "habitat": "marsh"
      },
      "geometry": {
        "type": "Polygon",
        "coordinates": [
          [
            [
              103.906111,
              1.370802
            ],
            [
              103.90537,
              1.368869
            ],
            [
              103.905457,
              1.367963
            ],
            [
              103.906354,
              1.368668
            ],
            [
              103.906973,
              1.37102
            ],
            [
              103.906581,
              1.37122
            ],
            [
              103.906111,
              1.370802
            ]
          ]
        ]
      }
    },
    {
      "type": "Feature",
      "properties": {
        "habitat": "marsh"
      },
      "geometry": {
        "type": "Polygon",
        "coordinates": [
          [
            [
              103.885028,
              1.397221
            ],
            [
              103.88414,
              1.39687
            ],
            [
              103.883801,
              1.396152
            ],
            [
              103.883895,
              1.395324
            ],
            [
              103.885285,
              1.395481
            ],
            [
              103.885413,
              1.396368
            ],
            [
              103.885028,
              1.397221
            ]
          ]
        ]
      }
    },
    {
      "type": "Feature",
      "properties": {
        "habitat": "marsh"
      },
      "geometry": {
        "type": "Polygon",
        "coordinates": [
          [
            [
              103.782671,
              1.33182
            ],
            [
              103.782717,
              1.331923
            ],
            [
              103.782316,
              1.332118
            ],
            [
              103.782201,
              1.331923
            ],
            [
              103.782316,
              1.331683
            ],
            [
              103.782671,
              1.33182
            ]
          ]
        ]
      }
    },
    {
      "type": "Feature",
      "properties": {
        "habitat": "marsh"
      },
      "geometry": {
        "type": "Polygon",
        "coordinates": [
          [
            [
              103.78243,
              1.330331
            ],
            [
              103.782064,
              1.330286
            ],
            [
              103.782007,
              1.329759
            ],
            [
              103.782282,
              1.329278
            ],
            [
              103.78298,
              1.328934
            ],
            [
              103.783244,
              1.329186
            ],
            [
              103.782694,
              1.329644
            ],
            [
              103.78243,
              1.330331
            ]
          ]
        ]
      }
    },
    {
      "type": "Feature",
      "properties": {
        "habitat": "marsh"
      },
      "geometry": {
        "type": "Polygon",
        "coordinates": [
          [
            [
              103.783622,
              1.328843
            ],
            [
              103.783438,
              1.328556
            ],
            [
              103.783461,
              1.328213
            ],
            [
              103.783599,
              1.328087
            ],
            [
              103.78408,
              1.327858
            ],
            [
              103.784584,
              1.327846
            ],
            [
              103.783622,
              1.328843
            ]
          ]
        ]
      }
    },
    {
      "type": "Feature",
      "properties": {
        "habitat": "marsh"
      },
      "geometry": {
        "type": "Polygon",
        "coordinates": [
          [
            [
              103.734032,
              1.420961
            ],
            [
              103.733755,
              1.419963
            ],
            [
              103.733506,
              1.42013
            ],
            [
              103.733076,
              1.419783
            ],
            [
              103.73327,
              1.419201
            ],
            [
              103.732799,
              1.418966
            ],
            [
              103.73266,
              1.418675
            ],
            [
              103.731953,
              1.418827
            ],
            [
              103.731455,
              1.418522
            ],
            [
              103.731302,
              1.417913
            ],
            [
              103.730942,
              1.418148
            ],
            [
              103.730776,
              1.417788
            ],
            [
              103.730055,
              1.418093
            ],
            [
              103.730055,
              1.418481
            ],
            [
              103.729279,
              1.418633
            ],
            [
              103.72932,
              1.418869
            ],
            [
              103.729057,
              1.419132
            ],
            [
              103.728614,
              1.419049
            ],
            [
              103.728641,
              1.420795
            ],
            [
              103.728281,
              1.421321
            ],
            [
              103.728392,
              1.421667
            ],
            [
              103.727935,
              1.421847
            ],
            [
              103.727006,
              1.420933
            ],
            [
              103.726798,
              1.420864
            ],
            [
              103.726798,
              1.420088
            ],
            [
              103.726563,
              1.419852
            ],
            [
              103.72666,
              1.418107
            ],
            [
              103.728447,
              1.417497
            ],
            [
              103.728392,
              1.416957
            ],
            [
              103.729445,
              1.415322
            ],
            [
              103.73467,
              1.420102
            ],
            [
              103.735789,
              1.421195
            ],
            [
              103.735408,
              1.422465
            ],
            [
              103.735306,
              1.421308
            ],
            [
              103.734556,
              1.420389
            ],
            [
              103.734032,
              1.420961
            ]
          ]
        ]
      }
    },
    {
      "type": "Feature",
      "properties": {
        "habitat": "marsh"
      },
      "geometry": {
        "type": "Polygon",
        "coordinates": [
          [
            [
              103.7373,
              1.430026
            ],
            [
              103.736279,
              1.428486
            ],
            [
              103.736118,
              1.426785
            ],
            [
              103.735366,
              1.425048
            ],
            [
              103.733611,
              1.423867
            ],
            [
              103.735438,
              1.422488
            ],
            [
              103.738231,
              1.430813
            ],
            [
              103.7373,
              1.430026
            ]
          ]
        ]
      }
    },
    {
      "type": "Feature",
      "properties": {
        "habitat": "marsh"
      },
      "geometry": {
        "type": "Polygon",
        "coordinates": [
          [
            [
              103.965892,
              1.404323
            ],
            [
              103.965502,
              1.404048
            ],
            [
              103.965669,
              1.403737
            ],
            [
              103.966172,
              1.403308
            ],
            [
              103.966256,
              1.402944
            ],
            [
              103.966668,
              1.403064
            ],
            [
              103.966788,
              1.403314
            ],
            [
              103.967212,
              1.402908
            ],
            [
              103.967444,
              1.403123
            ],
            [
              103.967122,
              1.403422
            ],
            [
              103.966178,
              1.403673
            ],
            [
              103.966244,
              1.404067
            ],
            [
              103.965892,
              1.404323
            ]
          ]
        ]
      }
    }
  ]
}