{
"type": "FeatureCollection",
"name": "youngsecondaryforest",
"crs": { "type": "name", "properties": { "name": "urn:ogc:def:crs:OGC:1.3:CRS84" } },
"features": [
{ "type": "Feature", "properties": { "id": 1, "name": "Windsor Nature Park", "ForestType": "Abandoned Kampung" }, "geometry": { "type": "MultiPolygon", "coordinates": [ [ [ [ 103.8229374, 1.3551142 ], [ 103.824721, 1.3554341 ], [ 103.826225, 1.3555847 ], [ 103.82658, 1.354114 ], [ 103.823782137106548, 1.352525584703347 ], [ 103.818683591632279, 1.354309224985501 ], [ 103.818299929922901, 1.355387625465901 ], [ 103.8183381, 1.35707 ], [ 103.81866880874766, 1.35712349805525 ], [ 103.818858364100791, 1.357073715841296 ], [ 103.819053663555536, 1.35725561239228 ], [ 103.819572261478768, 1.358502191392904 ], [ 103.819702061727071, 1.358692749204254 ], [ 103.820433914190943, 1.359524023134929 ], [ 103.820599616635604, 1.359783623631552 ], [ 103.820900642743382, 1.360468527069451 ], [ 103.821099485676967, 1.360827549032866 ], [ 103.821179575191891, 1.360899353425548 ], [ 103.821245856169753, 1.360907638547781 ], [ 103.821336992514304, 1.360913161962603 ], [ 103.821538597155296, 1.36090487684037 ], [ 103.82179819765193, 1.360896591718137 ], [ 103.821861716922371, 1.360946302451533 ], [ 103.822079891807832, 1.360982204647875 ], [ 103.822389203037858, 1.361020868551627 ], [ 103.822886310371814, 1.360918685377425 ], [ 103.823651303324624, 1.360802693666168 ], [ 103.824145648951173, 1.360866212936618 ], [ 103.824524002866468, 1.360996013184929 ], [ 103.824783603363088, 1.361142383677706 ], [ 103.825021110200424, 1.361274945633428 ], [ 103.82538289387125, 1.361335703196468 ], [ 103.825783341445828, 1.361330179781646 ], [ 103.826675372939548, 1.361244566851909 ], [ 103.82703991831778, 1.361219711485211 ], [ 103.827056488562249, 1.360675655125267 ], [ 103.82713933978458, 1.360427101458288 ], [ 103.827501123455392, 1.360004560224423 ], [ 103.826868692458305, 1.359501929475643 ], [ 103.826810696602678, 1.359165001171515 ], [ 103.82664499415803, 1.359004822141684 ], [ 103.826197597557467, 1.359082149949189 ], [ 103.825692205101276, 1.359101481901065 ], [ 103.825106723130162, 1.359071103119545 ], [ 103.824808458729791, 1.358897115552659 ], [ 103.824507432621999, 1.358803217500689 ], [ 103.824170504317877, 1.35855466383371 ], [ 103.823673396983921, 1.357477597943466 ], [ 103.823397226242832, 1.357124099394874 ], [ 103.823101723549854, 1.356546902545999 ], [ 103.82296087647191, 1.355966943989714 ], [ 103.822816615919351, 1.3551645094365 ], [ 103.8229374, 1.3551142 ] ] ] ] } },
{ "type": "Feature", "properties": { "id": 2, "name": "Dairy Farm Nature Park", "ForestType": "Abandoned Kampung" }, "geometry": { "type": "MultiPolygon", "coordinates": [ [ [ [ 103.770533991894496, 1.35318888861507 ], [ 103.76930187897247, 1.355866637000747 ], [ 103.768441, 1.357289 ], [ 103.76879, 1.357306 ], [ 103.768912, 1.357309 ], [ 103.768986, 1.357302 ], [ 103.769017, 1.357327 ], [ 103.769067, 1.357341 ], [ 103.769126, 1.357346 ], [ 103.769154, 1.357367 ], [ 103.769214, 1.357389 ], [ 103.7693, 1.357407 ], [ 103.76931, 1.357456 ], [ 103.76935, 1.357476 ], [ 103.769404, 1.357484 ], [ 103.769384, 1.357619 ], [ 103.7693403, 1.3581262 ], [ 103.7690678, 1.3598376 ], [ 103.769124600268967, 1.361485023475364 ], [ 103.768676568718092, 1.362113512178659 ], [ 103.768589451472096, 1.362530430427379 ], [ 103.7678086, 1.3627151 ], [ 103.767636186765415, 1.362712214048169 ], [ 103.767853491937601, 1.363127475706796 ], [ 103.768784311486684, 1.363322419529225 ], [ 103.769314545693774, 1.363412117248755 ], [ 103.769818176948746, 1.363479268082752 ], [ 103.77050227607009, 1.363714296001739 ], [ 103.771870474312763, 1.364268290382209 ], [ 103.772466437964482, 1.364444561321449 ], [ 103.773360383442053, 1.36453269679107 ], [ 103.774132618033008, 1.364578862989442 ], [ 103.775409192101677, 1.364590811906009 ], [ 103.775345165742252, 1.36449860528329 ], [ 103.775560819198745, 1.361512273722718 ], [ 103.775096695455417, 1.361427887587568 ], [ 103.773666819276499, 1.361362253926896 ], [ 103.773146438109734, 1.361488833129621 ], [ 103.772822957925001, 1.361432575706188 ], [ 103.772293200521005, 1.361315372740702 ], [ 103.7720025371666, 1.361343501452418 ], [ 103.771271190661977, 1.361259115317269 ], [ 103.769465528498088, 1.360503278787222 ], [ 103.769472748620444, 1.360200033648372 ], [ 103.769826534615774, 1.359716285450683 ], [ 103.77064045499425, 1.358519045023573 ], [ 103.77094299071878, 1.357059310152736 ], [ 103.770973244291227, 1.356537436027929 ], [ 103.770451370166427, 1.355463434205863 ], [ 103.770906645444541, 1.35458214955734 ], [ 103.771842375400283, 1.354225681002768 ], [ 103.771759060666639, 1.353425398936087 ], [ 103.771146136410124, 1.353169063222302 ], [ 103.770533991894496, 1.35318888861507 ] ] ] ] } },
{ "type": "Feature", "properties": { "id": 3, "name": "Rail Corridor", "ForestType": "Native-dominated Secondary Forest" }, "geometry": { "type": "MultiPolygon", "coordinates": [ [ [ [ 103.768094, 1.35752 ], [ 103.768441, 1.357289 ], [ 103.76930187897247, 1.355866637000747 ], [ 103.770533991894496, 1.35318888861507 ], [ 103.770764181620677, 1.352453282316193 ], [ 103.771344660060606, 1.350982069718441 ], [ 103.773040660869711, 1.348623962712508 ], [ 103.773238965941331, 1.348585389644632 ], [ 103.773501300784119, 1.348811717162884 ], [ 103.773829998869019, 1.3483944337785 ], [ 103.773967539202417, 1.348098372382876 ], [ 103.7743225, 1.347801 ], [ 103.775012788820632, 1.346897640333618 ], [ 103.77529246818689, 1.346304174361292 ], [ 103.775574992994052, 1.345816423493872 ], [ 103.775472903027577, 1.345447903614884 ], [ 103.7739351, 1.3466456 ], [ 103.7729042, 1.3481956 ], [ 103.7719199, 1.3494824 ], [ 103.770887913922621, 1.348548920470749 ], [ 103.770690777995227, 1.348776030564894 ], [ 103.771134864529657, 1.349237419172088 ], [ 103.770996447947496, 1.350333217114175 ], [ 103.77011404223623, 1.351867334233096 ], [ 103.769698792489748, 1.353436055497557 ], [ 103.769860278502264, 1.353609076225255 ], [ 103.769133591445936, 1.355223936350435 ], [ 103.768614529262848, 1.356227456571083 ], [ 103.767818633915425, 1.357057956064033 ], [ 103.767616776399777, 1.357680830683745 ], [ 103.768094, 1.35752 ] ] ] ] } },
{ "type": "Feature", "properties": { "id": 4, "name": "Rifle Range Nature Park", "ForestType": "Mixed Young Secondary Forest" }, "geometry": { "type": "MultiPolygon", "coordinates": [ [ [ [ 103.784169590518403, 1.351238110039955 ], [ 103.784548635682242, 1.351396438896674 ], [ 103.785980451809181, 1.348607380399396 ], [ 103.787773950655691, 1.346042043171952 ], [ 103.787725477713892, 1.345818321902117 ], [ 103.787848524412297, 1.345493926060856 ], [ 103.787889539978437, 1.345378336738108 ], [ 103.787453283502259, 1.345005467955049 ], [ 103.787262079528261, 1.344839903664259 ], [ 103.784165107295124, 1.343533281626943 ], [ 103.783492335948253, 1.34337759900122 ], [ 103.78238587728687, 1.342971712155585 ], [ 103.78102132597985, 1.342593398144847 ], [ 103.780663431260749, 1.342484117314584 ], [ 103.780205104034621, 1.34253190881548 ], [ 103.779666653754902, 1.342674679722984 ], [ 103.778947381641032, 1.342668136227368 ], [ 103.7798376, 1.3458201 ], [ 103.7810839, 1.3457856 ], [ 103.7821356, 1.3467404 ], [ 103.7804254, 1.3473998 ], [ 103.781422100699643, 1.350147992894629 ], [ 103.781826578554472, 1.350034541789007 ], [ 103.781999221541284, 1.350473548241197 ], [ 103.784169590518403, 1.351238110039955 ] ] ] ] } },
{ "type": "Feature", "properties": { "id": 5, "name": "Clementi Forest", "ForestType": "Abandoned Kampung" }, "geometry": { "type": "MultiPolygon", "coordinates": [ [ [ [ 103.7791927, 1.3319854 ], [ 103.7806662, 1.3325984 ], [ 103.781153488403035, 1.332851735516484 ], [ 103.781339826906432, 1.328954485541084 ], [ 103.781515550381869, 1.32647824250549 ], [ 103.78145416226819, 1.324920519120844 ], [ 103.781611469309496, 1.323934472544848 ], [ 103.7811502, 1.3236085 ], [ 103.7810273, 1.3210861 ], [ 103.7800285, 1.3217169 ], [ 103.7794254, 1.322791 ], [ 103.778792784726647, 1.323049712854999 ], [ 103.7782304, 1.3224203 ], [ 103.777699, 1.322689 ], [ 103.777360565989824, 1.322669942583457 ], [ 103.775029422940037, 1.321379127671142 ], [ 103.774385025511208, 1.321033698328409 ], [ 103.774275942560863, 1.321070059311855 ], [ 103.774490068352264, 1.321617494118173 ], [ 103.774328463981391, 1.32166799548407 ], [ 103.7747481, 1.3225028 ], [ 103.773837590704886, 1.322544699196034 ], [ 103.774508248844, 1.323930456676234 ], [ 103.774338564254592, 1.324090040992467 ], [ 103.773880011852242, 1.324261745636515 ], [ 103.7740159, 1.3246597 ], [ 103.775342, 1.3237486 ], [ 103.77570410491478, 1.323900310222872 ], [ 103.775824940996046, 1.324064647293404 ], [ 103.775370597330465, 1.324770330008045 ], [ 103.775283595351951, 1.325070003489604 ], [ 103.775389931103462, 1.325263341219643 ], [ 103.775220760589676, 1.325427678290175 ], [ 103.775776606563539, 1.326283197745596 ], [ 103.776322785650905, 1.326384700053866 ], [ 103.776606057793529, 1.326659855467331 ], [ 103.776664090642072, 1.326802519553334 ], [ 103.776947000778719, 1.327486823559077 ], [ 103.777203312526453, 1.327897889569594 ], [ 103.777737698340161, 1.328069570079868 ], [ 103.777897288673643, 1.328470963948961 ], [ 103.77837605967413, 1.329237481156807 ], [ 103.778777453543213, 1.32912141545972 ], [ 103.778949134053491, 1.329307604182131 ], [ 103.779142576881966, 1.329278587757859 ], [ 103.779345691851873, 1.329389817384234 ], [ 103.779323929533675, 1.329600186460205 ], [ 103.779553642892481, 1.329619530743052 ], [ 103.77985831534734, 1.329418833808506 ], [ 103.780148479590054, 1.329230227050739 ], [ 103.780216184580027, 1.328632972317812 ], [ 103.780341922418543, 1.32842985734791 ], [ 103.780673193262302, 1.328688587131 ], [ 103.780801349136169, 1.328739365873475 ], [ 103.780898070550407, 1.328867521747342 ], [ 103.781103603555664, 1.32883850532307 ], [ 103.781033480530354, 1.329056128505109 ], [ 103.780699791651216, 1.329155267954704 ], [ 103.780595816130912, 1.329375309172098 ], [ 103.780332250277112, 1.3296388750259 ], [ 103.779877659630202, 1.329774285005835 ], [ 103.779602003599621, 1.329919367127194 ], [ 103.779135322775915, 1.329924203197906 ], [ 103.778951552088856, 1.330049941036417 ], [ 103.778542904113692, 1.330303834748795 ], [ 103.778204379163853, 1.330630269521852 ], [ 103.778122165961761, 1.330905925552434 ], [ 103.778327698967018, 1.331670024724924 ], [ 103.778327698967018, 1.332095598947576 ], [ 103.7791927, 1.3319854 ] ] ] ] } },
{ "type": "Feature", "properties": { "id": 6, "name": "Rail Corridor", "ForestType": "Scrubland" }, "geometry": { "type": "MultiPolygon", "coordinates": [ [ [ [ 103.7811731, 1.3345908 ], [ 103.781450421505298, 1.334814079940543 ], [ 103.781541316034392, 1.33048576903159 ], [ 103.781675493672552, 1.326910584220796 ], [ 103.781806060277802, 1.324071545361457 ], [ 103.781611469309496, 1.323934472544848 ], [ 103.78145416226819, 1.324920519120844 ], [ 103.781515550381869, 1.32647824250549 ], [ 103.781339826906432, 1.328954485541084 ], [ 103.781153488403035, 1.332851735516484 ], [ 103.7811731, 1.3345908 ] ] ] ] } },
{ "type": "Feature", "properties": { "id": 6, "name": "Maju Forest / Sunset Way", "ForestType": "Native-dominated Secondary Forest" }, "geometry": { "type": "MultiPolygon", "coordinates": [ [ [ [ 103.77518751817864, 1.326107490512419 ], [ 103.774927434357949, 1.325792366385052 ], [ 103.774635110185358, 1.325516464918786 ], [ 103.774418330461856, 1.325657700193184 ], [ 103.773111083038359, 1.325076336389267 ], [ 103.772592125518486, 1.325309538819087 ], [ 103.7719041, 1.3253457 ], [ 103.7690583, 1.3233992 ], [ 103.768803994467092, 1.323467089147724 ], [ 103.768448410511468, 1.323885423213164 ], [ 103.768474556390558, 1.324120736124974 ], [ 103.7687907, 1.3251566 ], [ 103.7700152, 1.3284287 ], [ 103.770344612805559, 1.329207646157967 ], [ 103.770914153525581, 1.328971693508413 ], [ 103.773614500514938, 1.327352796162851 ], [ 103.774315804223335, 1.326854673902678 ], [ 103.774505877191032, 1.326592504292061 ], [ 103.775089204574655, 1.326317226200913 ], [ 103.77518751817864, 1.326107490512419 ] ] ] ] } },
{ "type": "Feature", "properties": { "id": 7, "name": "Alexandra Woodland", "ForestType": "Native-dominated Secondary Forest" }, "geometry": { "type": "MultiPolygon", "coordinates": [ [ [ [ 103.798876968856518, 1.289821657519622 ], [ 103.798576777698202, 1.288537233055343 ], [ 103.798286428872942, 1.287794136909342 ], [ 103.797946868382382, 1.287489024584494 ], [ 103.797612229058359, 1.287538236249792 ], [ 103.797213614569444, 1.286996907931513 ], [ 103.797346486065749, 1.286991986764983 ], [ 103.797252983901686, 1.286588451109539 ], [ 103.794762873637595, 1.288114012733779 ], [ 103.794693977306181, 1.288433888558217 ], [ 103.794708740805774, 1.288689789217767 ], [ 103.794979404964906, 1.28911300953933 ], [ 103.795314044288943, 1.28938367369847 ], [ 103.795368, 1.289761 ], [ 103.795816003274979, 1.290303931839544 ], [ 103.796288435261843, 1.290697625161928 ], [ 103.796504966589154, 1.29064841349663 ], [ 103.79695771390989, 1.290741915660696 ], [ 103.797277589734335, 1.290549990166034 ], [ 103.79751380572776, 1.290717309828047 ], [ 103.797779548720371, 1.290968289321067 ], [ 103.797946868382382, 1.290973210487597 ], [ 103.798532487199438, 1.29115037248267 ], [ 103.798611225863908, 1.291352140310392 ], [ 103.798881890023054, 1.291347219143863 ], [ 103.798876968856518, 1.289821657519622 ] ] ] ] } },
{ "type": "Feature", "properties": { "id": 8, "name": "Kent Ridge Park", "ForestType": "Young Native-dominated Secondary Forest" }, "geometry": { "type": "MultiPolygon", "coordinates": [ [ [ [ 103.795757, 1.2795782 ], [ 103.794292174796112, 1.277276605459774 ], [ 103.794092335594598, 1.276775356505437 ], [ 103.7937496, 1.2767784 ], [ 103.794276457388023, 1.278473323080544 ], [ 103.793942620630759, 1.279215939540588 ], [ 103.793608783873481, 1.279856361074937 ], [ 103.793826799714964, 1.280346896718269 ], [ 103.792900232388675, 1.280939627287295 ], [ 103.7926668, 1.2802343 ], [ 103.791244674592434, 1.280960066272433 ], [ 103.791367308503268, 1.281205334094099 ], [ 103.78937110095471, 1.282077397460022 ], [ 103.7893159, 1.2826541 ], [ 103.7893789, 1.2841052 ], [ 103.788496, 1.2845754 ], [ 103.788001688950388, 1.284223490899598 ], [ 103.78739533239127, 1.28447557171631 ], [ 103.78604352276669, 1.285735486628498 ], [ 103.78472, 1.2863216 ], [ 103.7838784, 1.2873606 ], [ 103.7838833, 1.288432 ], [ 103.7828857, 1.2892566 ], [ 103.7817819, 1.2899706 ], [ 103.7826199, 1.290734 ], [ 103.7834058, 1.2915243 ], [ 103.7844618, 1.289847 ], [ 103.7854033, 1.2890261 ], [ 103.7863472, 1.2883142 ], [ 103.7878892, 1.2890806 ], [ 103.7890461, 1.2886445 ], [ 103.7899755, 1.2878796 ], [ 103.7904818, 1.2868351 ], [ 103.7918568, 1.2856103 ], [ 103.7910916, 1.2843461 ], [ 103.7921823, 1.2835688 ], [ 103.793107, 1.2824153 ], [ 103.793613, 1.2808934 ], [ 103.7947093, 1.2806513 ], [ 103.795757, 1.2795782 ] ] ] ] } },
{ "type": "Feature", "properties": { "id": 9, "name": "Gillman Barracks", "ForestType": "Native-dominated Secondary Forest" }, "geometry": { "type": "MultiPolygon", "coordinates": [ [ [ [ 103.80407291421551, 1.281157266160325 ], [ 103.804193005359679, 1.281040658344824 ], [ 103.804629076036704, 1.279659157124336 ], [ 103.804878259280713, 1.279289046717786 ], [ 103.805365632390334, 1.279204764149958 ], [ 103.805405941444519, 1.279032534554831 ], [ 103.805380290228214, 1.278497523472095 ], [ 103.806769120367647, 1.278131077525016 ], [ 103.806604219691465, 1.2780577883356 ], [ 103.806362365366383, 1.277815934010528 ], [ 103.806347707528502, 1.277555757388102 ], [ 103.806402674420568, 1.277141673467902 ], [ 103.806292740636451, 1.276723925088232 ], [ 103.806347707528516, 1.276320834546445 ], [ 103.806567575096764, 1.275576949273874 ], [ 103.806567575096764, 1.275104234002142 ], [ 103.806410003339522, 1.27463151873041 ], [ 103.806322056312212, 1.27430538183751 ], [ 103.805951945905662, 1.274609531973586 ], [ 103.805647795769588, 1.274602203054644 ], [ 103.805090797930035, 1.274466618054225 ], [ 103.804848943604966, 1.274495933729991 ], [ 103.804625411577248, 1.274752445892946 ], [ 103.804497155495767, 1.275357081705627 ], [ 103.804288281305929, 1.275338759408273 ], [ 103.804379892792696, 1.27592873738307 ], [ 103.804724351982955, 1.276507721979455 ], [ 103.804570444685183, 1.276716596169291 ], [ 103.804214992116513, 1.276837523331827 ], [ 103.804130709548687, 1.277017081845895 ], [ 103.804651062793539, 1.277647368874872 ], [ 103.804977199686434, 1.278189708876549 ], [ 103.804775654415536, 1.279135139420013 ], [ 103.804592431442003, 1.278970238743827 ], [ 103.80433591927904, 1.278951916446473 ], [ 103.804020775764556, 1.278684410905106 ], [ 103.803782585898958, 1.278585470499394 ], [ 103.803690974412191, 1.278281320363319 ], [ 103.803203832771857, 1.278501059494531 ], [ 103.8032191335015, 1.278908058903 ], [ 103.803044705183581, 1.279614952612445 ], [ 103.802288849139288, 1.281193987911465 ], [ 103.80407291421551, 1.281157266160325 ] ] ] ] } },
{ "type": "Feature", "properties": { "id": 10, "name": "Telok Blangah Hill Park", "ForestType": "Native-dominated Secondary Forest" }, "geometry": { "type": "MultiPolygon", "coordinates": [ [ [ [ 103.814578534117686, 1.275215042524788 ], [ 103.812888830196201, 1.276215525109883 ], [ 103.80966505297755, 1.277521710707092 ], [ 103.807836393141457, 1.278160907914236 ], [ 103.806224504532139, 1.278694498626287 ], [ 103.805365632390334, 1.279204764149958 ], [ 103.804878259280713, 1.279289046717786 ], [ 103.804629076036704, 1.279659157124336 ], [ 103.804193005359679, 1.281040658344824 ], [ 103.804301354674124, 1.281317986293871 ], [ 103.804812712439841, 1.281479175154803 ], [ 103.805040600139776, 1.281184588615858 ], [ 103.80545190964699, 1.281134564486603 ], [ 103.806230062768734, 1.28120126332561 ], [ 103.806185596876063, 1.28193495055468 ], [ 103.80670251287836, 1.282001649393686 ], [ 103.806602464619843, 1.281595898123064 ], [ 103.806897051158785, 1.281434709262132 ], [ 103.807447316580593, 1.28124572921828 ], [ 103.808453357402271, 1.280945584442752 ], [ 103.80904808871675, 1.28085665265741 ], [ 103.809464956460531, 1.280639881430639 ], [ 103.810048571301849, 1.280645439667223 ], [ 103.810876748552843, 1.280400877257533 ], [ 103.81136587337221, 1.280456459623372 ], [ 103.811804974062341, 1.280334178418527 ], [ 103.812510870108497, 1.280350853128278 ], [ 103.813272348520485, 1.280067383062501 ], [ 103.814061618115389, 1.279689422974798 ], [ 103.815173265432165, 1.279717214157718 ], [ 103.815573458466204, 1.27953379235045 ], [ 103.816407193953779, 1.278688940389703 ], [ 103.816796270514658, 1.278805663357964 ], [ 103.814578534117686, 1.275215042524788 ] ] ] ] } },
{ "type": "Feature", "properties": { "id": 11, "name": "Bukit Chermin", "ForestType": "Coastal Forest" }, "geometry": { "type": "MultiPolygon", "coordinates": [ [ [ [ 103.810143167038206, 1.265753030461003 ], [ 103.809761507486115, 1.265373358719082 ], [ 103.809542848367727, 1.265156687410866 ], [ 103.809270518374831, 1.265033443180504 ], [ 103.808707968097536, 1.264928089241646 ], [ 103.808328296355612, 1.264989711356827 ], [ 103.808051990742385, 1.265260053539556 ], [ 103.807964527095038, 1.265510517620614 ], [ 103.808048015122054, 1.265778871993176 ], [ 103.808294503582772, 1.266355336941642 ], [ 103.808596650728177, 1.266575983870193 ], [ 103.809105530130964, 1.26705504612047 ], [ 103.809518994645728, 1.267381046987878 ], [ 103.809612421723571, 1.267257802757516 ], [ 103.809552787418568, 1.267080887652642 ], [ 103.809453396910214, 1.266806569849579 ], [ 103.809550799608402, 1.26644677620933 ], [ 103.810143167038206, 1.265753030461003 ] ] ] ] } },
{ "type": "Feature", "properties": { "id": 12, "name": "Labrador Nature Reserve", "ForestType": "Primary Coastal Forest" }, "geometry": { "type": "MultiPolygon", "coordinates": [ [ [ [ 103.80456599038628, 1.264675568584318 ], [ 103.804381881556097, 1.264254349897055 ], [ 103.804211720364549, 1.264139979260116 ], [ 103.803913240897415, 1.264148347843306 ], [ 103.803812817899129, 1.264474722587742 ], [ 103.803542233709294, 1.26495173182961 ], [ 103.803227017075784, 1.26533389712865 ], [ 103.802713743973413, 1.265978278034331 ], [ 103.802200470871057, 1.265908539841075 ], [ 103.801441719328452, 1.266544552163565 ], [ 103.801274347664631, 1.266438550109817 ], [ 103.80075549550682, 1.266709134299649 ], [ 103.80060486100939, 1.266837452575239 ], [ 103.800546280927051, 1.267043877627275 ], [ 103.800049744991071, 1.267255881734772 ], [ 103.799628526303806, 1.2676185203397 ], [ 103.799098516035059, 1.268254532662191 ], [ 103.799449996529077, 1.268477694880608 ], [ 103.799896320965914, 1.268142951552982 ], [ 103.800518385649752, 1.267562729785096 ], [ 103.800950762447926, 1.267833313974927 ], [ 103.800936814809276, 1.268009054221931 ], [ 103.801048395918485, 1.268274059356302 ], [ 103.802019151568601, 1.268979809872048 ], [ 103.80224510331476, 1.268402377631892 ], [ 103.803034539662406, 1.267448359148157 ], [ 103.803547812764762, 1.267141511097833 ], [ 103.803890924675585, 1.266778872492904 ], [ 103.804482304554384, 1.266212598363669 ], [ 103.804273089974615, 1.266025700005744 ], [ 103.804540884636722, 1.265286475157236 ], [ 103.80456599038628, 1.264675568584318 ] ] ] ] } },
{ "type": "Feature", "properties": { "id": 12, "name": "Mount Faber Park", "ForestType": "Native-dominated Secondary Forest" }, "geometry": { "type": "MultiPolygon", "coordinates": [ [ [ [ 103.816796270514658, 1.278805663357964 ], [ 103.818846966094895, 1.276252554382805 ], [ 103.819173577636008, 1.275272719759436 ], [ 103.819383542198167, 1.274164573459198 ], [ 103.820316718029943, 1.273453026887466 ], [ 103.821296552653308, 1.272473192264098 ], [ 103.822136410901919, 1.271201740193298 ], [ 103.822206399089296, 1.270781811068997 ], [ 103.82298793384841, 1.270723487579511 ], [ 103.823022927942105, 1.26975531765404 ], [ 103.823547839347484, 1.270046935101471 ], [ 103.824014427263364, 1.269323723831842 ], [ 103.824177733033935, 1.268087265854734 ], [ 103.825059027291417, 1.267993869211705 ], [ 103.825485477390799, 1.267867266838454 ], [ 103.825838631379341, 1.267594072243543 ], [ 103.82601187673221, 1.267214265123789 ], [ 103.825831968096537, 1.266734508761995 ], [ 103.825445497693977, 1.266354701642241 ], [ 103.825138986685062, 1.266188119572174 ], [ 103.825059027291417, 1.266527946995111 ], [ 103.824972404614982, 1.266981050225695 ], [ 103.824189397731828, 1.267189084116646 ], [ 103.824014427263364, 1.266699166804962 ], [ 103.823594498139073, 1.266384219961737 ], [ 103.823127910223178, 1.266337561170148 ], [ 103.823174569014768, 1.266874137273421 ], [ 103.822649657609389, 1.266804149086037 ], [ 103.822334710766171, 1.266384219961737 ], [ 103.821774805267097, 1.266314231774353 ], [ 103.8213665408407, 1.26658251982599 ], [ 103.820538347289997, 1.266885801971318 ], [ 103.820071759374102, 1.266652508013373 ], [ 103.818706989720127, 1.26759734854305 ], [ 103.818858630792789, 1.267772319011508 ], [ 103.817155584899794, 1.268798812426466 ], [ 103.816793979264972, 1.268133924646323 ], [ 103.815732491756322, 1.268553853770624 ], [ 103.814892633507725, 1.269032106384411 ], [ 103.814985951090904, 1.269393712019225 ], [ 103.814682668945579, 1.269592011883478 ], [ 103.814122763446505, 1.269918623424601 ], [ 103.814472704383419, 1.270735152277408 ], [ 103.813119599427338, 1.271411704755449 ], [ 103.811929800241828, 1.272099921931386 ], [ 103.81208144131449, 1.272484856961995 ], [ 103.813387887478981, 1.273756309032795 ], [ 103.814578534117686, 1.275215042524788 ], [ 103.816796270514658, 1.278805663357964 ] ] ] ] } },
{ "type": "Feature", "properties": { "id": 13, "name": "Jalan Bahar Forest", "ForestType": "Mature Native-dominated Secondary Forest" }, "geometry": { "type": "MultiPolygon", "coordinates": [ [ [ [ 103.694046680422304, 1.359898863381404 ], [ 103.693829776337338, 1.360689925338382 ], [ 103.693102509699472, 1.362450676145851 ], [ 103.692872846550671, 1.363701064400431 ], [ 103.693472522550309, 1.363560714698386 ], [ 103.69482498331547, 1.363254497166652 ], [ 103.695845708421245, 1.363088629336963 ], [ 103.696611252250577, 1.362642062103185 ], [ 103.698027508334846, 1.363228979039008 ], [ 103.698206135228361, 1.365130079548521 ], [ 103.699545836929701, 1.365257670186744 ], [ 103.700145512929339, 1.365321465505855 ], [ 103.700387935141961, 1.365461815207899 ], [ 103.700413453269604, 1.365678719292877 ], [ 103.700451730461083, 1.368358122695547 ], [ 103.702697325693791, 1.368447436142303 ], [ 103.70286319352347, 1.372236878097508 ], [ 103.703730809863387, 1.37224963716133 ], [ 103.705006716245606, 1.371752033672262 ], [ 103.706078477606681, 1.370846140140884 ], [ 103.707226793350671, 1.37019542788595 ], [ 103.70869408569024, 1.370323018524172 ], [ 103.71104175343352, 1.372185841842219 ], [ 103.712190069177524, 1.372862072224797 ], [ 103.7147715, 1.3737939 ], [ 103.715099135728991, 1.371382020821418 ], [ 103.714729122878154, 1.370093355375372 ], [ 103.714129446878502, 1.369429884056615 ], [ 103.711909369773437, 1.367783964823547 ], [ 103.708681326626419, 1.366240118101056 ], [ 103.707367143052721, 1.365474574271722 ], [ 103.704777053096805, 1.363560714698386 ], [ 103.703220447310485, 1.361851000146206 ], [ 103.702493180672619, 1.360932347551005 ], [ 103.700528284843998, 1.358316739467446 ], [ 103.69823165335599, 1.355688372320065 ], [ 103.697976472079546, 1.355624577000954 ], [ 103.697823363313688, 1.356020107979444 ], [ 103.69756818203723, 1.356581506787622 ], [ 103.696840915399363, 1.357053592149045 ], [ 103.69636883003794, 1.3566835792982 ], [ 103.695399141187451, 1.357257737170201 ], [ 103.694837742379278, 1.357959485680424 ], [ 103.6950801645919, 1.358201907893046 ], [ 103.695539490889502, 1.358699511382113 ], [ 103.695373623059808, 1.35896745172238 ], [ 103.694799465187813, 1.359273669254114 ], [ 103.694378416081676, 1.359082283296781 ], [ 103.694046680422304, 1.359898863381404 ] ] ] ] } },
{ "type": "Feature", "properties": { "id": 14, "name": "Tengah Forest Corridor", "ForestType": "Native-dominated Secondary Forest" }, "geometry": { "type": "MultiPolygon", "coordinates": [ [ [ [ 103.711972942415755, 1.367291039530758 ], [ 103.721188424234924, 1.369854800706476 ], [ 103.722372221193552, 1.37032945092771 ], [ 103.723463782896786, 1.370988253460524 ], [ 103.725520477514635, 1.37256128609503 ], [ 103.729036636525919, 1.375601375061579 ], [ 103.732939625716327, 1.378451822001136 ], [ 103.733872492585505, 1.377361505926717 ], [ 103.735085373194664, 1.376120604973457 ], [ 103.73369636470828, 1.374883706926497 ], [ 103.732519510255827, 1.376108596254554 ], [ 103.730002290524411, 1.374330160396698 ], [ 103.725200819270938, 1.370665566104506 ], [ 103.726714774492152, 1.368540867583822 ], [ 103.72552769596642, 1.367001106307698 ], [ 103.723253160707941, 1.369131408709549 ], [ 103.720950307375958, 1.368256555789447 ], [ 103.71657113012941, 1.367159273460679 ], [ 103.714426814118468, 1.366711714958506 ], [ 103.712339108320066, 1.366100311122268 ], [ 103.71170470773562, 1.366143829456901 ], [ 103.710829568856497, 1.365906780421811 ], [ 103.709092877537785, 1.363973881321017 ], [ 103.709202306998449, 1.363404848125486 ], [ 103.709864030978181, 1.362123526771607 ], [ 103.709864030978181, 1.362123526771607 ], [ 103.712851968115544, 1.359258803536802 ], [ 103.714138013223646, 1.358011262773258 ], [ 103.715177630526597, 1.357940652068178 ], [ 103.715514325606591, 1.358244894610344 ], [ 103.716110640989243, 1.357973104606009 ], [ 103.716698843237424, 1.357818955051311 ], [ 103.717250536380547, 1.357307827580472 ], [ 103.717177518170431, 1.35687783145421 ], [ 103.7169249, 1.3568682 ], [ 103.7165568, 1.3570114 ], [ 103.7154897, 1.3573246 ], [ 103.7153959, 1.3573529 ], [ 103.7150633, 1.3574909 ], [ 103.7147005, 1.3576908 ], [ 103.7145412, 1.3577279 ], [ 103.714468700000012, 1.3577173 ], [ 103.7142262, 1.3576041 ], [ 103.713948490656236, 1.357672918631071 ], [ 103.710382768062047, 1.360954681519239 ], [ 103.708873725052911, 1.362147312284532 ], [ 103.708476181464476, 1.362617874083082 ], [ 103.708208448027378, 1.363141171255609 ], [ 103.708151656086159, 1.363798335146688 ], [ 103.708074581308821, 1.364341915155358 ], [ 103.708220617729054, 1.365116719496076 ], [ 103.70868712296037, 1.365867184433419 ], [ 103.709567398049046, 1.366431047278234 ], [ 103.711972942415755, 1.367291039530758 ] ] ] ] } },
{ "type": "Feature", "properties": { "id": 14, "name": "Bukit Batok Town Park", "ForestType": "Native-dominated Secondary Forest" }, "geometry": { "type": "MultiPolygon", "coordinates": [ [ [ [ 103.758556444997339, 1.353639540631649 ], [ 103.758136814853088, 1.353952355830083 ], [ 103.75784434535862, 1.354056627562894 ], [ 103.757628172254016, 1.354023565793954 ], [ 103.757231431026725, 1.353924380487133 ], [ 103.756918615828297, 1.35364462705764 ], [ 103.756773652687556, 1.353448799656994 ], [ 103.756537133878993, 1.353441170018008 ], [ 103.756295528644429, 1.353509836768884 ], [ 103.756056466622852, 1.353352157563169 ], [ 103.755891157778152, 1.353240256191372 ], [ 103.755621577200642, 1.3530037373828 ], [ 103.755364712688106, 1.352818082834136 ], [ 103.755176514926447, 1.352769761787224 ], [ 103.754978144312815, 1.352993564530819 ], [ 103.754858613302034, 1.353369960054137 ], [ 103.754881502218993, 1.353794676624368 ], [ 103.754985773951802, 1.354328751353401 ], [ 103.75475434156921, 1.354547467671005 ], [ 103.754482217778715, 1.354809418609531 ], [ 103.753674251380772, 1.355043140072194 ], [ 103.7534162, 1.3555131 ], [ 103.753166474386404, 1.355406679976476 ], [ 103.753089295714432, 1.355680664261971 ], [ 103.753093154648042, 1.356024109352238 ], [ 103.753239794124781, 1.356301952571332 ], [ 103.753413446136719, 1.356656974462395 ], [ 103.753413446136719, 1.357019714220655 ], [ 103.753506060543074, 1.357282121705354 ], [ 103.753891953902922, 1.357394030779711 ], [ 103.754324154465962, 1.357671873998805 ], [ 103.754374320602736, 1.358192830034604 ], [ 103.754262411528387, 1.358408930316121 ], [ 103.753714442957389, 1.358875861281541 ], [ 103.753459753339897, 1.359107397297452 ], [ 103.753548508812656, 1.359798146411586 ], [ 103.753193486921589, 1.360461882990531 ], [ 103.75283074716333, 1.360500472326516 ], [ 103.75243327700268, 1.3602805131114 ], [ 103.752182446318784, 1.36033453818178 ], [ 103.751954769236477, 1.360789892346404 ], [ 103.751885308431696, 1.361573255866903 ], [ 103.752738132756974, 1.361615704136486 ], [ 103.753143320784815, 1.361592550534895 ], [ 103.753276426276585, 1.36176919251808 ], [ 103.753232445898092, 1.363028532717747 ], [ 103.754518938421, 1.36344257650587 ], [ 103.75527319832635, 1.363766721258579 ], [ 103.755291898985163, 1.363479977823491 ], [ 103.754874531713753, 1.362454300886181 ], [ 103.755655746873984, 1.36195260307686 ], [ 103.755863593109268, 1.361429403932854 ], [ 103.756530134484507, 1.361085382577892 ], [ 103.757125004744125, 1.360977875904466 ], [ 103.757189508748183, 1.360669690107312 ], [ 103.756974495401337, 1.360504846541393 ], [ 103.756874155839469, 1.3602038278558 ], [ 103.756967328289775, 1.359823970943029 ], [ 103.757117837632578, 1.35945128114182 ], [ 103.757375853648796, 1.358741737097209 ], [ 103.757297015421614, 1.358240039287889 ], [ 103.75708916918633, 1.357838681040432 ], [ 103.75724684564068, 1.357408654346729 ], [ 103.757719875003758, 1.357301147673303 ], [ 103.7579922252431, 1.357164972553631 ], [ 103.758221572813071, 1.356656107632749 ], [ 103.758429419048369, 1.356519932513076 ], [ 103.758766273291769, 1.356505598289952 ], [ 103.758644432395215, 1.356290584943101 ], [ 103.758615763948967, 1.355502202671311 ], [ 103.758228739924633, 1.355380361774762 ], [ 103.758551259944909, 1.355014839085114 ], [ 103.758773440403331, 1.354713820399522 ], [ 103.758859445742061, 1.354405634602368 ], [ 103.758888114188309, 1.353803597231184 ], [ 103.758658766618339, 1.35349541143403 ], [ 103.758556444997339, 1.353639540631649 ] ] ] ] } },
{ "type": "Feature", "properties": { "id": 15, "name": "Gombak Base", "ForestType": "Mixed Secondary Forest" }, "geometry": { "type": "MultiPolygon", "coordinates": [ [ [ [ 103.757125004744125, 1.360977875904466 ], [ 103.756530134484507, 1.361085382577892 ], [ 103.755863593109268, 1.361429403932854 ], [ 103.755655746873984, 1.36195260307686 ], [ 103.754874531713753, 1.362454300886181 ], [ 103.755291898985163, 1.363479977823491 ], [ 103.75527319832635, 1.363766721258579 ], [ 103.754518938421, 1.36344257650587 ], [ 103.753901816680269, 1.367949435279107 ], [ 103.753646241009861, 1.368067872784905 ], [ 103.753739744303914, 1.368485520831664 ], [ 103.754176093009477, 1.368722395843259 ], [ 103.754020254186059, 1.369719764313131 ], [ 103.753949791200839, 1.371239324271786 ], [ 103.754037955647831, 1.372352400414949 ], [ 103.753766115269642, 1.372624240793147 ], [ 103.753538357114934, 1.372642608386269 ], [ 103.753358354702343, 1.372741793389125 ], [ 103.753542030633554, 1.372954857469334 ], [ 103.753714686008891, 1.373491191188482 ], [ 103.75412244657619, 1.373726296380437 ], [ 103.754284081395667, 1.373832828420542 ], [ 103.754412654547508, 1.374211200838845 ], [ 103.754335510656404, 1.374530796959159 ], [ 103.754096731945822, 1.374527123440535 ], [ 103.754032161683568, 1.37477668375594 ], [ 103.753624236905452, 1.375080898844705 ], [ 103.754087473517885, 1.375744640856554 ], [ 103.75403907566286, 1.376035027986738 ], [ 103.754357118710203, 1.376366898992663 ], [ 103.754979376846308, 1.376691856019297 ], [ 103.755062344597789, 1.376242447365441 ], [ 103.754903323074117, 1.375910576359516 ], [ 103.755048516639206, 1.375675501063653 ], [ 103.755408043562298, 1.375544135457141 ], [ 103.756113269449884, 1.375640931167202 ], [ 103.756479710352266, 1.375758468815134 ], [ 103.756942946964699, 1.375530307498561 ], [ 103.757053570633346, 1.375067070886124 ], [ 103.756991344819724, 1.374299619184923 ], [ 103.756936032985408, 1.373864038489647 ], [ 103.756977516861141, 1.3733385760636 ], [ 103.757226420115586, 1.372902995368324 ], [ 103.757440753473588, 1.372778543741102 ], [ 103.757648172852285, 1.372584952320979 ], [ 103.757648172852285, 1.371997264081321 ], [ 103.757530635204361, 1.37125055431799 ], [ 103.757226420115586, 1.371292038193731 ], [ 103.757219506136309, 1.370980909125676 ], [ 103.757389944910329, 1.369935531617585 ], [ 103.757617151790669, 1.369699909667608 ], [ 103.758189376526332, 1.369287571255148 ], [ 103.758618545078079, 1.369262326046221 ], [ 103.758542809451299, 1.36962417404083 ], [ 103.758719525913776, 1.370171153567563 ], [ 103.759308580788726, 1.36995236175687 ], [ 103.75965359864405, 1.370246889194341 ], [ 103.75965359864405, 1.370819113930001 ], [ 103.759906050733306, 1.371315603038882 ], [ 103.760293143936835, 1.371340848247808 ], [ 103.760461445329682, 1.371164131785325 ], [ 103.760453030260038, 1.370844359138927 ], [ 103.761050500204618, 1.370701302955012 ], [ 103.761454423547448, 1.370793868721075 ], [ 103.761353442711737, 1.370524586492529 ], [ 103.761563819452789, 1.370061757662216 ], [ 103.762068723631316, 1.36942221236942 ], [ 103.76200140307418, 1.368993043817676 ], [ 103.761732120845636, 1.368757421867698 ], [ 103.761446008477805, 1.36831142317667 ], [ 103.761767406114146, 1.367016076449362 ], [ 103.761930059272089, 1.366560647607115 ], [ 103.762235033943227, 1.3661580810412 ], [ 103.762617268864403, 1.365999494212204 ], [ 103.762853115943429, 1.365755514475286 ], [ 103.763072697706647, 1.365568463343649 ], [ 103.763215019219857, 1.36535701423832 ], [ 103.763129626311937, 1.36440549326434 ], [ 103.762987304798727, 1.36351496722459 ], [ 103.76268639645653, 1.363429574316668 ], [ 103.762479013680149, 1.363177461921854 ], [ 103.762271630903768, 1.363108334329727 ], [ 103.762129309390559, 1.362778961684888 ], [ 103.761669814219374, 1.362791160671734 ], [ 103.760880946403333, 1.361514333381863 ], [ 103.760783354508561, 1.36122562402651 ], [ 103.76057597173218, 1.361164629092281 ], [ 103.760551573758491, 1.360920649355363 ], [ 103.760783354508561, 1.360725465565829 ], [ 103.760763022863827, 1.360607542026318 ], [ 103.760628834008514, 1.360444888868373 ], [ 103.760449915534778, 1.360404225578887 ], [ 103.760242532758397, 1.360534348105243 ], [ 103.760104277574143, 1.360717332907931 ], [ 103.760153073521522, 1.361034506565925 ], [ 103.759982287705682, 1.361189027065973 ], [ 103.759640660902292, 1.361300395924744 ], [ 103.759253636877958, 1.361429403932855 ], [ 103.759045790642674, 1.361336231482552 ], [ 103.758730437733959, 1.361321897259429 ], [ 103.758400750602121, 1.361479573713787 ], [ 103.75795638968529, 1.361680252837515 ], [ 103.7576553709997, 1.361458072379101 ], [ 103.757125004744125, 1.360977875904466 ] ] ] ] } },
{ "type": "Feature", "properties": { "id": 14, "name": "Bukit Batok Nature Corridor 1", "ForestType": "Native-dominated Secondary Forest" }, "geometry": { "type": "MultiPolygon", "coordinates": [ [ [ [ 103.769978938520879, 1.349084353351 ], [ 103.766799942123583, 1.347276841239299 ], [ 103.766193656122582, 1.347324959175887 ], [ 103.765664358820104, 1.347392324287111 ], [ 103.765000331295184, 1.347854256478358 ], [ 103.76421119713514, 1.347767644192499 ], [ 103.7638070064678, 1.347228723302711 ], [ 103.763008248720439, 1.346930392095864 ], [ 103.762353844782837, 1.347065122318311 ], [ 103.761593581384744, 1.347324959175887 ], [ 103.760996918971045, 1.347700279081275 ], [ 103.761064284082266, 1.349297794576004 ], [ 103.762238361735029, 1.349451771973087 ], [ 103.762065137163304, 1.350808697784875 ], [ 103.760727458526162, 1.350548860927298 ], [ 103.760207784811001, 1.35135724226198 ], [ 103.760082678175877, 1.352810403946945 ], [ 103.761603204972062, 1.352945134169392 ], [ 103.761872665416959, 1.35381125702798 ], [ 103.761535839860841, 1.354542649664121 ], [ 103.761968901290132, 1.354802486521697 ], [ 103.762238361735029, 1.355225924363674 ], [ 103.762084384337939, 1.35564936220565 ], [ 103.762786906212128, 1.356063176460309 ], [ 103.763402815800461, 1.356043929285673 ], [ 103.764913719009328, 1.356005434936403 ], [ 103.765452639899124, 1.355533879157838 ], [ 103.765953066439636, 1.355245171538309 ], [ 103.766482363742114, 1.354821733696332 ], [ 103.767098273330433, 1.354350177917768 ], [ 103.767233003552889, 1.353378195598686 ], [ 103.767579452696324, 1.352877769058168 ], [ 103.766645964726507, 1.352627555787909 ], [ 103.766674835488459, 1.351819174453227 ], [ 103.767290745076792, 1.351790303691274 ], [ 103.768416704792955, 1.352059764136168 ], [ 103.769677394731559, 1.352213741533251 ], [ 103.769978938520879, 1.349084353351 ] ] ] ] } },
{ "type": "Feature", "properties": { "id": 15, "name": "Bukit Batok Nature Corridor 2", "ForestType": "Native-dominated Secondary Forest" }, "geometry": { "type": "MultiPolygon", "coordinates": [ [ [ [ 103.763614534721455, 1.34653582501584 ], [ 103.764057219738064, 1.346227870221675 ], [ 103.764134208436602, 1.345958409776781 ], [ 103.763768512118531, 1.345756314443111 ], [ 103.76410533767465, 1.344938309521111 ], [ 103.764721247262983, 1.345169275616735 ], [ 103.765250544565447, 1.344591860377676 ], [ 103.765847206979146, 1.343475524248829 ], [ 103.766617093964555, 1.343052086406853 ], [ 103.767059778981164, 1.342667142914147 ], [ 103.766876930822136, 1.342176339960947 ], [ 103.76513506151764, 1.342128222024359 ], [ 103.7647308708503, 1.340328611195959 ], [ 103.764653882151762, 1.339693454432995 ], [ 103.764336303770278, 1.339414370400783 ], [ 103.763296956339971, 1.339183404305159 ], [ 103.762700293926272, 1.339087168431983 ], [ 103.762276856084299, 1.338480882430971 ], [ 103.761997772052084, 1.339029426908077 ], [ 103.761160519955453, 1.341897255928735 ], [ 103.760968048209094, 1.344726590600123 ], [ 103.761199014304722, 1.34637222403144 ], [ 103.763614534721455, 1.34653582501584 ] ] ] ] } },
{ "type": "Feature", "properties": { "id": 16, "name": "Bukit Batok Nature Corridor 3", "ForestType": "Native-dominated Secondary Forest" }, "geometry": { "type": "MultiPolygon", "coordinates": [ [ [ [ 103.764336303770278, 1.339414370400783 ], [ 103.764426281019112, 1.336529053144609 ], [ 103.764074518183889, 1.336242734557806 ], [ 103.764393558894909, 1.335866430129436 ], [ 103.764786224385375, 1.336201831902548 ], [ 103.765048001379029, 1.335653736322096 ], [ 103.765530652711064, 1.335400139859499 ], [ 103.765457027931603, 1.334958391182717 ], [ 103.765612458021579, 1.334516642505935 ], [ 103.76558791642843, 1.33405853276705 ], [ 103.764802585447484, 1.333870380552865 ], [ 103.764385378363855, 1.333265021255053 ], [ 103.761538553557926, 1.335252890300572 ], [ 103.76085138894959, 1.335571931011581 ], [ 103.760704139390668, 1.336218192964651 ], [ 103.760532348238584, 1.337216217752937 ], [ 103.761113165943243, 1.337510716870791 ], [ 103.761759427896308, 1.337780674395491 ], [ 103.762276856084299, 1.338480882430971 ], [ 103.762700293926272, 1.339087168431983 ], [ 103.763296956339971, 1.339183404305159 ], [ 103.764336303770278, 1.339414370400783 ] ] ] ] } },
{ "type": "Feature", "properties": { "id": 17, "name": "Bukit Batok Nature Corridor 3", "ForestType": "Native-dominated Secondary Forest" }, "geometry": { "type": "MultiPolygon", "coordinates": [ [ [ [ 103.744053039765745, 1.361391410733506 ], [ 103.744506751460875, 1.361265379707079 ], [ 103.74512362258595, 1.36092860429134 ], [ 103.745528138053089, 1.360539070878539 ], [ 103.746287228806239, 1.359685093781246 ], [ 103.746796618653747, 1.359240626169205 ], [ 103.747061301613726, 1.358796158557164 ], [ 103.747111241794855, 1.358261798619091 ], [ 103.747061301613726, 1.357957163514209 ], [ 103.746616834001685, 1.358032073785901 ], [ 103.74643205533151, 1.357807342970824 ], [ 103.745807803067407, 1.357797354934599 ], [ 103.745258461074997, 1.357842301097614 ], [ 103.745163574730853, 1.357527677956506 ], [ 103.74522849696632, 1.357258000978413 ], [ 103.745298413219899, 1.357073222308239 ], [ 103.745273443129335, 1.35689843167429 ], [ 103.745083670441048, 1.356728635058454 ], [ 103.744429454068268, 1.357143138561818 ], [ 103.744639202829006, 1.357382851431234 ], [ 103.744818987481068, 1.357727438681019 ], [ 103.744709119082586, 1.358017091731563 ], [ 103.744779035336165, 1.358616373905102 ], [ 103.744634208810893, 1.358881056865082 ], [ 103.744379513887139, 1.359025883390353 ], [ 103.744189741198852, 1.359240626169205 ], [ 103.743984986456226, 1.36004466308537 ], [ 103.744364531832801, 1.36027438791856 ], [ 103.744249669416206, 1.360589011059668 ], [ 103.744144795035837, 1.360778783747955 ], [ 103.7437802317136, 1.361233239396222 ], [ 103.743870124039631, 1.361408030030171 ], [ 103.744053039765745, 1.361391410733506 ] ] ] ] } },
{ "type": "Feature", "properties": { "id": 18, "name": "Bukit Batok Nature Corridor 4", "ForestType": "Native-dominated Secondary Forest" }, "geometry": { "type": "MultiPolygon", "coordinates": [ [ [ [ 103.747435968553305, 1.356345847955637 ], [ 103.748477850465903, 1.356389360425304 ], [ 103.7485221, 1.3561818 ], [ 103.7484718, 1.3561399 ], [ 103.7484159, 1.3560823 ], [ 103.748341, 1.355915 ], [ 103.748349, 1.3554806 ], [ 103.7483562, 1.3554513 ], [ 103.748047560488075, 1.354375700023467 ], [ 103.748158759021678, 1.354281423005854 ], [ 103.74924173604451, 1.353964748921052 ], [ 103.749448200000018, 1.3550766 ], [ 103.749722790570274, 1.35504047386561 ], [ 103.749925848762061, 1.354924440613164 ], [ 103.749986282747713, 1.354455472884524 ], [ 103.750015291060819, 1.354191980707093 ], [ 103.750153080548102, 1.354322518116096 ], [ 103.750356138739889, 1.354131546721444 ], [ 103.750689734340668, 1.353793116401807 ], [ 103.751216718695531, 1.35336524378341 ], [ 103.751576905250005, 1.353171855029332 ], [ 103.751662242479014, 1.352544595769811 ], [ 103.752018483437169, 1.352469292803046 ], [ 103.752186466978429, 1.352677824095628 ], [ 103.752319695304237, 1.352582247253194 ], [ 103.752560085544303, 1.352327375673372 ], [ 103.7529134302345, 1.352243383902749 ], [ 103.753156716742524, 1.352234695098891 ], [ 103.753133546598903, 1.351982719787021 ], [ 103.753104583919367, 1.351516420646665 ], [ 103.753148027938664, 1.351354229641323 ], [ 103.753460824877536, 1.351192038635982 ], [ 103.753469513681395, 1.351061706578118 ], [ 103.752722276549633, 1.349767074803339 ], [ 103.752641181046968, 1.349761282267434 ], [ 103.751082988888513, 1.350867656625299 ], [ 103.75125676496566, 1.351058810310165 ], [ 103.751557976832729, 1.351313681889988 ], [ 103.75162748726359, 1.351655441508386 ], [ 103.751320482860621, 1.351782877298297 ], [ 103.751135121711656, 1.351655441508386 ], [ 103.750964241902452, 1.351131217008979 ], [ 103.750888938935688, 1.351108046865358 ], [ 103.750422639795332, 1.351574346005715 ], [ 103.750037436157655, 1.351956653375449 ], [ 103.749910000367734, 1.352156495864173 ], [ 103.750089568980798, 1.35239398983628 ], [ 103.750190938359125, 1.352840015100969 ], [ 103.750298100273369, 1.353118056824412 ], [ 103.750295204005425, 1.35318467098732 ], [ 103.749967925726793, 1.353251285150228 ], [ 103.74876018199059, 1.353538015677528 ], [ 103.748264920170698, 1.353566978357053 ], [ 103.747908679212557, 1.354004314817885 ], [ 103.747616156149363, 1.354624116159725 ], [ 103.747425002464496, 1.355325013004237 ], [ 103.747367077105437, 1.35623444114133 ], [ 103.747435968553305, 1.356345847955637 ] ] ] ] } },
{ "type": "Feature", "properties": { "id": 18, "name": "Bukit Batok Nature Corridor 5", "ForestType": "Native-dominated Secondary Forest" }, "geometry": { "type": "MultiPolygon", "coordinates": [ [ [ [ 103.744747032781007, 1.356484663382633 ], [ 103.745383910006836, 1.356317255654697 ], [ 103.745824265117278, 1.356262666178197 ], [ 103.746293734615179, 1.356248108984463 ], [ 103.747036151495593, 1.356248108984463 ], [ 103.747203559223522, 1.356120733539295 ], [ 103.747221755715699, 1.355545724386822 ], [ 103.74734913116086, 1.354665014165946 ], [ 103.747501981695066, 1.354122758699374 ], [ 103.747902304522739, 1.353616896217135 ], [ 103.748131580324042, 1.353187459001997 ], [ 103.748269873664512, 1.352808971964926 ], [ 103.748229841381743, 1.352550581776157 ], [ 103.747807682763465, 1.352546942477723 ], [ 103.746959726228496, 1.352514188791823 ], [ 103.745609546509712, 1.352361338257621 ], [ 103.745533121242616, 1.35285628284456 ], [ 103.745314763336609, 1.353307555850298 ], [ 103.745052733849406, 1.353609617620268 ], [ 103.744757950676302, 1.353860729212171 ], [ 103.744324874162729, 1.353973547463605 ], [ 103.743924551335056, 1.353922597285538 ], [ 103.743578817983888, 1.353838893421571 ], [ 103.74326219902018, 1.35379522184037 ], [ 103.742796368820706, 1.354028136940106 ], [ 103.74244335687267, 1.354333838008509 ], [ 103.742265031249445, 1.354563113809812 ], [ 103.74251978213978, 1.354861536281348 ], [ 103.74278545092541, 1.355199991035652 ], [ 103.743127544978151, 1.355440184732255 ], [ 103.74374258641339, 1.355764082292825 ], [ 103.744313956267433, 1.355949686512927 ], [ 103.744747032781007, 1.356484663382633 ] ] ] ] } },
{ "type": "Feature", "properties": { "id": 19, "name": "Istana Woodneuk", "ForestType": "Exotic-dominated Secondary Forest" }, "geometry": { "type": "MultiPolygon", "coordinates": [ [ [ [ 103.8089479635712, 1.314378973898527 ], [ 103.809785736937627, 1.313516560138967 ], [ 103.81083706037785, 1.312645932915031 ], [ 103.812085506963115, 1.311561755617299 ], [ 103.812340124358798, 1.311142868934084 ], [ 103.812578314825728, 1.310477578319567 ], [ 103.812734370648883, 1.309598737631254 ], [ 103.813309313155258, 1.309196277876792 ], [ 103.813777480624736, 1.308785604657955 ], [ 103.81412244612855, 1.30803817939967 ], [ 103.814680961706173, 1.306765092421272 ], [ 103.814040311484789, 1.306666530848751 ], [ 103.813284672762123, 1.306584396204983 ], [ 103.812931493793926, 1.306666530848751 ], [ 103.81137914902672, 1.307496090750804 ], [ 103.808849401998671, 1.309048435518011 ], [ 103.808414088386712, 1.309721939596905 ], [ 103.807880213202225, 1.310313309032032 ], [ 103.807765224700944, 1.311085374683447 ], [ 103.807871999737841, 1.311799946084225 ], [ 103.808266246027927, 1.312366675126221 ], [ 103.808734413497405, 1.313541200532097 ], [ 103.8089479635712, 1.314378973898527 ] ] ] ] } },
{ "type": "Feature", "properties": { "id": 20, "name": "Thomson Nature Park", "ForestType": "Abandoned Kampung" }, "geometry": { "type": "MultiPolygon", "coordinates": [ [ [ [ 103.818037, 1.3907522 ], [ 103.817920947082968, 1.389566303297857 ], [ 103.81807682577417, 1.388739140565547 ], [ 103.818626429520521, 1.387916359836042 ], [ 103.819385935591868, 1.387359388717045 ], [ 103.820687222660794, 1.386488488421888 ], [ 103.821704960796424, 1.385845439948137 ], [ 103.823826514422421, 1.384523899383973 ], [ 103.824656907727103, 1.383977055012595 ], [ 103.825259449210378, 1.383455527510262 ], [ 103.825467047536563, 1.38304033085792 ], [ 103.826282250719814, 1.381632712939002 ], [ 103.827396192957792, 1.379404828463016 ], [ 103.827573411041101, 1.378933934698774 ], [ 103.827608346244361, 1.378497187146323 ], [ 103.827330016943662, 1.378938675002625 ], [ 103.826916836199246, 1.379245683761968 ], [ 103.826069176662443, 1.379635774712842 ], [ 103.825740080923637, 1.379715825027684 ], [ 103.825370960027414, 1.37962354480363 ], [ 103.8250329698092, 1.379496798471797 ], [ 103.824773918095886, 1.379257759337199 ], [ 103.824543773440723, 1.379014272962888 ], [ 103.824388120050742, 1.378748550390009 ], [ 103.82395835591052, 1.378629657245156 ], [ 103.823732152193031, 1.378644040256743 ], [ 103.823533138215836, 1.378750774009865 ], [ 103.823243191904979, 1.379033358321148 ], [ 103.822825135194435, 1.379554101807119 ], [ 103.822502216197009, 1.379668965611575 ], [ 103.821740220040098, 1.379517433461826 ], [ 103.821500950580813, 1.379588777672616 ], [ 103.821218145425377, 1.379781148502108 ], [ 103.82085677814554, 1.380214577215008 ], [ 103.820574523882286, 1.380452824093136 ], [ 103.820201219856685, 1.380518076422815 ], [ 103.819905308129066, 1.380543873855478 ], [ 103.819601808921263, 1.38051048894262 ], [ 103.818984209730871, 1.380364242269232 ], [ 103.817795453375098, 1.380121454296751 ], [ 103.8177221, 1.3801623 ], [ 103.8176765, 1.380341 ], [ 103.8176861, 1.3804475 ], [ 103.8177397, 1.3806835 ], [ 103.8179543, 1.381075 ], [ 103.8188448, 1.3826946 ], [ 103.819172, 1.3832845 ], [ 103.8192203, 1.3834775 ], [ 103.8192847, 1.3837832 ], [ 103.8193544, 1.3845662 ], [ 103.8193651, 1.3849952 ], [ 103.8193598, 1.3852956 ], [ 103.8191076, 1.3859766 ], [ 103.8188984, 1.386411 ], [ 103.8187429, 1.3866363 ], [ 103.8184907, 1.3866792 ], [ 103.8183083, 1.3866792 ], [ 103.8180669, 1.386647 ], [ 103.8177558, 1.386529 ], [ 103.8174608, 1.3863949 ], [ 103.8173052, 1.3863628 ], [ 103.8171174, 1.3863896 ], [ 103.8169243, 1.3864754 ], [ 103.816699, 1.3867006 ], [ 103.8167044, 1.3868025 ], [ 103.8166883, 1.3870438 ], [ 103.8167902, 1.3873549 ], [ 103.8169136, 1.3877625 ], [ 103.8170048, 1.3878375 ], [ 103.8172247, 1.3879394 ], [ 103.817552, 1.3881003 ], [ 103.8178202, 1.3882344 ], [ 103.8179114, 1.3883524 ], [ 103.8179489, 1.3885508 ], [ 103.8179436, 1.3887117 ], [ 103.8178953, 1.3888565 ], [ 103.8177612, 1.3890764 ], [ 103.81767, 1.3892748 ], [ 103.8176431, 1.3894893 ], [ 103.81767, 1.3899773 ], [ 103.8177665, 1.3904278 ], [ 103.8178794, 1.3907363 ], [ 103.818037, 1.3907522 ] ] ] ] } },
{ "type": "Feature", "properties": { "id": 21, "name": "Bukit Brown Cemetery", "ForestType": "Mature Native-dominated Secondary Forest" }, "geometry": { "type": "MultiPolygon", "coordinates": [ [ [ [ 103.816789341717509, 1.332581720203692 ], [ 103.817325508980829, 1.333332354372338 ], [ 103.818028483837182, 1.334011499572543 ], [ 103.818874436630409, 1.334428518555124 ], [ 103.819505922518331, 1.334654900288525 ], [ 103.819386774237586, 1.335762979299385 ], [ 103.820292301171193, 1.336680421061064 ], [ 103.819958685985128, 1.337085525215571 ], [ 103.820137408406239, 1.337264247636678 ], [ 103.820649746013402, 1.338134030086062 ], [ 103.821364635697833, 1.338610623209012 ], [ 103.8211978281048, 1.338872749426635 ], [ 103.82221058849106, 1.339575724282986 ], [ 103.821841228820787, 1.340111891546305 ], [ 103.822448885052538, 1.340266784311264 ], [ 103.823604623375701, 1.340743377434214 ], [ 103.825034402744549, 1.341124651932574 ], [ 103.826488011769541, 1.341100822276427 ], [ 103.827345879390862, 1.340969759167616 ], [ 103.828287150808677, 1.340433591904297 ], [ 103.828847147728155, 1.339933169125199 ], [ 103.829573952240651, 1.339909339469051 ], [ 103.830169693644336, 1.340040402577863 ], [ 103.830586712626911, 1.340278699139338 ], [ 103.8310513909218, 1.340266784311264 ], [ 103.830539053314624, 1.339051471847741 ], [ 103.830050545363605, 1.338145944914136 ], [ 103.83038416054967, 1.337752755587702 ], [ 103.830443734690036, 1.337097440043645 ], [ 103.832028406823838, 1.336084679657376 ], [ 103.833053082038191, 1.335298301004508 ], [ 103.832898189273223, 1.334905111678074 ], [ 103.832421596150269, 1.334571496492009 ], [ 103.831659047153551, 1.334392774070903 ], [ 103.831027561265643, 1.334559581663935 ], [ 103.830622457111133, 1.334249796134018 ], [ 103.829955226739003, 1.333808947495289 ], [ 103.829192677742284, 1.33355873610574 ], [ 103.828596936338599, 1.333094057810863 ], [ 103.828322895292899, 1.332402997782586 ], [ 103.827774813201515, 1.33216470122111 ], [ 103.826916945580194, 1.331509385677054 ], [ 103.826190141067698, 1.331723852582381 ], [ 103.825868440709712, 1.331163855662915 ], [ 103.826285459692286, 1.330568114259227 ], [ 103.826881201095986, 1.329996202511687 ], [ 103.82690503075213, 1.329579183529106 ], [ 103.826845456611764, 1.329043016265786 ], [ 103.826023333474666, 1.328888123500828 ], [ 103.82555865517979, 1.32819706347255 ], [ 103.825642058976314, 1.327648981381157 ], [ 103.825141636197216, 1.327672811037305 ], [ 103.824641213418118, 1.328244722784845 ], [ 103.823747601312576, 1.329126420062303 ], [ 103.822842074378983, 1.329686416981769 ], [ 103.821829313992708, 1.330103435964351 ], [ 103.820220812202749, 1.330675347711891 ], [ 103.816789341717509, 1.332581720203692 ] ] ] ] } },
{ "type": "Feature", "properties": { "id": 22, "name": "Mount Pleasant", "ForestType": "Native-dominated Secondary Forest" }, "geometry": { "type": "MultiPolygon", "coordinates": [ [ [ [ 103.827298220078561, 1.326922176868658 ], [ 103.826940775236352, 1.327291536538944 ], [ 103.826988434548639, 1.327899192770706 ], [ 103.827369709047005, 1.328685571423573 ], [ 103.827548431468117, 1.32924556834304 ], [ 103.827882046654182, 1.329829394918654 ], [ 103.828489702885932, 1.33010343596435 ], [ 103.828799488415854, 1.330460880806563 ], [ 103.829133103601919, 1.331080451866398 ], [ 103.829645441209095, 1.331461726364759 ], [ 103.830574797798846, 1.331831086035045 ], [ 103.831301602311342, 1.331545130161275 ], [ 103.832135640276505, 1.331461726364759 ], [ 103.83260031857138, 1.331557044989349 ], [ 103.832516914774871, 1.331962149143856 ], [ 103.833315208255812, 1.332283849501848 ], [ 103.83407775725253, 1.331354492912095 ], [ 103.83461392451585, 1.331247259459431 ], [ 103.834947539701915, 1.330913644273366 ], [ 103.835400303168711, 1.330889814617218 ], [ 103.836055618712777, 1.3313068335998 ], [ 103.836389233898842, 1.331580874645496 ], [ 103.836937315990227, 1.33092555910144 ], [ 103.83669901942875, 1.330770666336481 ], [ 103.836103278025064, 1.330544284603079 ], [ 103.835900725947809, 1.33029407321353 ], [ 103.83541221799679, 1.330305988041604 ], [ 103.834602009687771, 1.330675347711891 ], [ 103.834125416564817, 1.330341732525826 ], [ 103.834018183112164, 1.329924713543244 ], [ 103.83433988347015, 1.329400461107999 ], [ 103.833863290347196, 1.329281312827261 ], [ 103.833958608971784, 1.328542593486688 ], [ 103.834268394501706, 1.327863448286484 ], [ 103.83461392451585, 1.327720470349599 ], [ 103.834971369358058, 1.327422599647755 ], [ 103.835602855245966, 1.327648981381157 ], [ 103.835710088698633, 1.327803874146116 ], [ 103.835984129744332, 1.328054085535664 ], [ 103.83635348941462, 1.328256637612918 ], [ 103.836413063554986, 1.328018341051443 ], [ 103.836139022509286, 1.327363025507387 ], [ 103.835638599730189, 1.327220047570502 ], [ 103.834649669000072, 1.326934091696731 ], [ 103.834506691063183, 1.327208132742428 ], [ 103.833899034831418, 1.327482173788124 ], [ 103.833613078957654, 1.328232807956771 ], [ 103.833207974803145, 1.329019186609639 ], [ 103.832624148227524, 1.329924713543244 ], [ 103.83225478855725, 1.33000811733976 ], [ 103.83193308819925, 1.329972372855539 ], [ 103.830789264704165, 1.32972216146599 ], [ 103.831087135406023, 1.329257483171114 ], [ 103.831575643357041, 1.328459189690172 ], [ 103.831992662339616, 1.327124728945912 ], [ 103.832230958901093, 1.32642175408956 ], [ 103.833315208255812, 1.326660050651035 ], [ 103.833958608971784, 1.326481328229929 ], [ 103.833100741350478, 1.326123883387716 ], [ 103.831766280606217, 1.326171542700011 ], [ 103.830765435048022, 1.326576646854519 ], [ 103.829943311910938, 1.326981751009026 ], [ 103.829323740851095, 1.326910262040584 ], [ 103.828227576668311, 1.327041325149395 ], [ 103.827298220078561, 1.326922176868658 ] ] ] ] } },
{ "type": "Feature", "properties": { "id": 23, "name": "Sime Road Forest", "ForestType": "Native-dominated Secondary Forest" }, "geometry": { "type": "MultiPolygon", "coordinates": [ [ [ [ 103.804929245163066, 1.34086162291197 ], [ 103.805035692798683, 1.341393861090055 ], [ 103.806171134245261, 1.341251930909233 ], [ 103.807821072597321, 1.34123418963663 ], [ 103.809027479134315, 1.340914846729779 ], [ 103.810074214217877, 1.340897105457176 ], [ 103.81120965566447, 1.340542280005119 ], [ 103.811635446206935, 1.340418091096899 ], [ 103.811511257298719, 1.339726181465388 ], [ 103.810890312757621, 1.339708440192786 ], [ 103.811014501665838, 1.339052013106481 ], [ 103.811049984211039, 1.338626222564012 ], [ 103.811387068390488, 1.338129466931133 ], [ 103.811546739843919, 1.338448809837984 ], [ 103.811901565295983, 1.339335873468126 ], [ 103.812522509837081, 1.338821376562644 ], [ 103.812167684385017, 1.338537516200998 ], [ 103.812327355838448, 1.338076243113324 ], [ 103.812291873293233, 1.337490781117431 ], [ 103.811741893842552, 1.337916571659899 ], [ 103.811422550935703, 1.336958542939346 ], [ 103.811670928752136, 1.336213409490026 ], [ 103.812327355838448, 1.335787618947558 ], [ 103.813001524197347, 1.335965031673586 ], [ 103.81369343382886, 1.335681171311941 ], [ 103.814296637097357, 1.335805360220161 ], [ 103.81498854672887, 1.336266633307835 ], [ 103.815520784906951, 1.335965031673586 ], [ 103.816390107264496, 1.33536182840509 ], [ 103.816709450171345, 1.335521499858516 ], [ 103.815698197632983, 1.337064990574963 ], [ 103.815964316722031, 1.337366592209211 ], [ 103.816372365991896, 1.336834354031126 ], [ 103.817649737619291, 1.336071479309204 ], [ 103.818306164705604, 1.335823101492764 ], [ 103.817702961437107, 1.334652177500977 ], [ 103.817241688349426, 1.334244128231111 ], [ 103.816869121624777, 1.33404897423248 ], [ 103.815982057994631, 1.33404897423248 ], [ 103.81502402927407, 1.333818337688643 ], [ 103.813977294190508, 1.333889302779054 ], [ 103.812487027291866, 1.334368317139331 ], [ 103.810588711123373, 1.335468276040707 ], [ 103.808743618772667, 1.337579487480445 ], [ 103.806774337513758, 1.339353614740729 ], [ 103.804929245163066, 1.34086162291197 ] ] ] ] } }
]
}
