{
  "type": "FeatureCollection",
  "features": [
    {
      "type": "Feature",
      "properties": {
        "@id": "relation/16088318",
        "natural": "reef",
        "type": "multipolygon",
        "name": "sisters"
      },
      "geometry": {
        "type": "MultiPolygon",
        "coordinates": [
          [
            [
              [
                103.8338013,
                1.2144898
              ],
              [
                103.8334697,
                1.2141327
              ],
              [
                103.8332656,
                1.2137757
              ],
              [
                103.8331381,
                1.2132401
              ],
              [
                103.8332741,
                1.2130446
              ],
              [
                103.8336398,
                1.21273
              ],
              [
                103.8338949,
                1.2122369
              ],
              [
                103.8341585,
                1.2119564
              ],
              [
                103.8345921,
                1.2120499
              ],
              [
                103.8352384,
                1.2122029
              ],
              [
                103.835604,
                1.2121944
              ],
              [
                103.8357996,
                1.2123985
              ],
              [
                103.8362843,
                1.2125515
              ],
              [
                103.836871,
                1.2134271
              ],
              [
                103.8367179,
                1.2145323
              ],
              [
                103.8361142,
                1.2151274
              ],
              [
                103.8351448,
                1.2157139
              ],
              [
                103.8347112,
                1.2156289
              ],
              [
                103.8345071,
                1.2153739
              ],
              [
                103.8342265,
                1.2148213
              ],
              [
                103.8338013,
                1.2144898
              ]
            ]
          ],
          [
            [
              [
                103.8321857,
                1.2172952
              ],
              [
                103.8318626,
                1.2171336
              ],
              [
                103.8316415,
                1.2168701
              ],
              [
                103.831514,
                1.2164791
              ],
              [
                103.831497,
                1.2159945
              ],
              [
                103.831616,
                1.2153569
              ],
              [
                103.8318881,
                1.2148383
              ],
              [
                103.8321602,
                1.2144643
              ],
              [
                103.8325089,
                1.2143793
              ],
              [
                103.8327895,
                1.2145068
              ],
              [
                103.8331296,
                1.2149063
              ],
              [
                103.8334867,
                1.2152039
              ],
              [
                103.8336738,
                1.2156119
              ],
              [
                103.8336908,
                1.2158925
              ],
              [
                103.8338439,
                1.2161985
              ],
              [
                103.8339034,
                1.2165386
              ],
              [
                103.8337078,
                1.2168616
              ],
              [
                103.8330956,
                1.2170911
              ],
              [
                103.8321857,
                1.2172952
              ]
            ]
          ]
        ]
      }
    },
    {
      "type": "Feature",
      "properties": {
        "@id": "way/260983015",
        "natural": "reef",
        "source": "Bing",
        "subsea": "coral_reef",
        "type": "multipolygon",
        "name": "lfa"
      },
      "geometry": {
        "type": "MultiPolygon",
        "coordinates": [
          [
            [
              [
                103.7091848,
                1.2184929
              ],
              [
                103.7072472,
                1.2182333
              ],
              [
                103.7055306,
                1.2181904
              ],
              [
                103.7054018,
                1.2175039
              ],
              [
                103.7055735,
                1.2165171
              ],
              [
                103.705846,
                1.215822
              ],
              [
                103.7066464,
                1.2156161
              ],
              [
                103.7076763,
                1.2154874
              ],
              [
                103.7086784,
                1.2159078
              ],
              [
                103.709408,
                1.2161653
              ],
              [
                103.7099938,
                1.2161309
              ],
              [
                103.71091,
                1.2163369
              ],
              [
                103.710895,
                1.2171607
              ],
              [
                103.7104379,
                1.2177528
              ],
              [
                103.7100517,
                1.218096
              ],
              [
                103.7091848,
                1.2184929
              ]
            ],
            [
              [
                103.7063883,
                1.2172069
              ],
              [
                103.7065116,
                1.2171545
              ],
              [
                103.7066903,
                1.2170282
              ],
              [
                103.7068197,
                1.216945
              ],
              [
                103.7069337,
                1.216831
              ],
              [
                103.7071678,
                1.2167386
              ],
              [
                103.7073373,
                1.2166401
              ],
              [
                103.7075029,
                1.21646
              ],
              [
                103.7075663,
                1.2163965
              ],
              [
                103.7075877,
                1.216333
              ],
              [
                103.7075653,
                1.2163067
              ],
              [
                103.7075301,
                1.2162637
              ],
              [
                103.707471,
                1.2162442
              ],
              [
                103.7073543,
                1.2162322
              ],
              [
                103.707309,
                1.2162071
              ],
              [
                103.7071586,
                1.2162592
              ],
              [
                103.7070136,
                1.2163142
              ],
              [
                103.7069807,
                1.216341
              ],
              [
                103.7069451,
                1.216334
              ],
              [
                103.7069308,
                1.2163009
              ],
              [
                103.7067967,
                1.2163254
              ],
              [
                103.706715,
                1.216344
              ],
              [
                103.7066516,
                1.2163901
              ],
              [
                103.7065789,
                1.216483
              ],
              [
                103.706567,
                1.2165754
              ],
              [
                103.7065208,
                1.2167294
              ],
              [
                103.7064499,
                1.2167756
              ],
              [
                103.7063806,
                1.2168339
              ],
              [
                103.7063646,
                1.2168788
              ],
              [
                103.7063036,
                1.2169101
              ],
              [
                103.7062487,
                1.2169169
              ],
              [
                103.706183,
                1.2169571
              ],
              [
                103.7061604,
                1.2170049
              ],
              [
                103.7061189,
                1.2170546
              ],
              [
                103.7061237,
                1.2171248
              ],
              [
                103.7061855,
                1.2171977
              ],
              [
                103.7062682,
                1.2172007
              ],
              [
                103.7063883,
                1.2172069
              ]
            ]
          ],
          [
            [
              [
                103.7158024,
                1.2156504
              ],
              [
                103.7153582,
                1.2163026
              ],
              [
                103.7146715,
                1.2162597
              ],
              [
                103.7144999,
                1.2156161
              ],
              [
                103.7148432,
                1.2153157
              ],
              [
                103.7155298,
                1.2153157
              ],
              [
                103.7158024,
                1.2156504
              ]
            ]
          ],
          [
            [
              [
                103.7104229,
                1.2153586
              ],
              [
                103.7093929,
                1.2152728
              ],
              [
                103.7079767,
                1.2148009
              ],
              [
                103.706833,
                1.2143203
              ],
              [
                103.7068609,
                1.2134279
              ],
              [
                103.7071764,
                1.2123896
              ],
              [
                103.7079767,
                1.2121407
              ],
              [
                103.7089209,
                1.2128272
              ],
              [
                103.7100796,
                1.2137711
              ],
              [
                103.7110237,
                1.2140286
              ],
              [
                103.7123112,
                1.2138569
              ],
              [
                103.7135987,
                1.2138998
              ],
              [
                103.7143711,
                1.2141144
              ],
              [
                103.7134849,
                1.214921
              ],
              [
                103.7125408,
                1.2154788
              ],
              [
                103.71141,
                1.2154444
              ],
              [
                103.7104229,
                1.2153586
              ]
            ]
          ],
          [
            [
              [
                103.7133625,
                1.2111361
              ],
              [
                103.7117878,
                1.2096544
              ],
              [
                103.7099816,
                1.2077096
              ],
              [
                103.707388,
                1.2061816
              ],
              [
                103.7062764,
                1.2048388
              ],
              [
                103.7070174,
                1.203496
              ],
              [
                103.7105556,
                1.2032978
              ],
              [
                103.7140292,
                1.2025107
              ],
              [
                103.717904,
                1.2017698
              ],
              [
                103.7208218,
                1.2022328
              ],
              [
                103.7238322,
                1.2026496
              ],
              [
                103.7264258,
                1.2017698
              ],
              [
                103.7303625,
                1.2026033
              ],
              [
                103.733234,
                1.2029274
              ],
              [
                103.7342066,
                1.2035293
              ],
              [
                103.7341139,
                1.2045943
              ],
              [
                103.7324466,
                1.2064465
              ],
              [
                103.7310109,
                1.2087617
              ],
              [
                103.729992,
                1.2110306
              ],
              [
                103.7290194,
                1.2120956
              ],
              [
                103.7242953,
                1.2136236
              ],
              [
                103.7215628,
                1.2138551
              ],
              [
                103.7191081,
                1.2127901
              ],
              [
                103.7166998,
                1.2127438
              ],
              [
                103.7141988,
                1.2119104
              ],
              [
                103.7133625,
                1.2111361
              ]
            ]
          ],
          [
            [
              [
                103.7340693,
                1.198325
              ],
              [
                103.7332968,
                1.1985825
              ],
              [
                103.7292198,
                1.198325
              ],
              [
                103.7279903,
                1.1980161
              ],
              [
                103.7252008,
                1.1978874
              ],
              [
                103.7284044,
                1.1973811
              ],
              [
                103.730164,
                1.1967375
              ],
              [
                103.7312948,
                1.1958279
              ],
              [
                103.7323097,
                1.1949784
              ],
              [
                103.733168,
                1.1948925
              ],
              [
                103.734213,
                1.1952272
              ],
              [
                103.7351851,
                1.1958794
              ],
              [
                103.7359146,
                1.196523
              ],
              [
                103.7356722,
                1.1975441
              ],
              [
                103.7349276,
                1.1979818
              ],
              [
                103.7340693,
                1.198325
              ]
            ]
          ],
          [
            [
              [
                103.7384037,
                1.1922753
              ],
              [
                103.7367021,
                1.1918805
              ],
              [
                103.7349426,
                1.1916231
              ],
              [
                103.7340843,
                1.1918376
              ],
              [
                103.7337259,
                1.1907736
              ],
              [
                103.7347988,
                1.1890573
              ],
              [
                103.7361721,
                1.187384
              ],
              [
                103.7376312,
                1.1872982
              ],
              [
                103.7389187,
                1.1876414
              ],
              [
                103.7393908,
                1.1885424
              ],
              [
                103.739262,
                1.1897009
              ],
              [
                103.7387621,
                1.1906363
              ],
              [
                103.7384037,
                1.1922753
              ]
            ]
          ],
          [
            [
              [
                103.7405924,
                1.1858394
              ],
              [
                103.7401203,
                1.1863542
              ],
              [
                103.739262,
                1.1868691
              ],
              [
                103.73879,
                1.186011
              ],
              [
                103.7393629,
                1.1855304
              ],
              [
                103.7400774,
                1.1853245
              ],
              [
                103.7407212,
                1.1853245
              ],
              [
                103.7405924,
                1.1858394
              ]
            ]
          ],
          [
            [
              [
                103.7324188,
                1.1774863
              ],
              [
                103.7345934,
                1.1765943
              ],
              [
                103.7375485,
                1.1762599
              ],
              [
                103.7435703,
                1.1760369
              ],
              [
                103.7453546,
                1.1736398
              ],
              [
                103.7446297,
                1.1717445
              ],
              [
                103.7420649,
                1.1712985
              ],
              [
                103.7407824,
                1.1691802
              ],
              [
                103.7423437,
                1.1663929
              ],
              [
                103.7441837,
                1.1642745
              ],
              [
                103.742734,
                1.1603166
              ],
              [
                103.7407267,
                1.1575293
              ],
              [
                103.7378831,
                1.157585
              ],
              [
                103.7363219,
                1.1613757
              ],
              [
                103.7362103,
                1.1642745
              ],
              [
                103.7331994,
                1.1659469
              ],
              [
                103.7289619,
                1.1689014
              ],
              [
                103.7262855,
                1.1724134
              ],
              [
                103.7266758,
                1.1762599
              ],
              [
                103.7287388,
                1.177988
              ],
              [
                103.7324188,
                1.1774863
              ]
            ]
          ],
          [
            [
              [
                103.7242987,
                1.1924132
              ],
              [
                103.7263292,
                1.1911444
              ],
              [
                103.7288673,
                1.1903832
              ],
              [
                103.7303267,
                1.1901928
              ],
              [
                103.7316593,
                1.1889875
              ],
              [
                103.7314055,
                1.1873381
              ],
              [
                103.7289308,
                1.1867671
              ],
              [
                103.7283597,
                1.1841026
              ],
              [
                103.7244891,
                1.1835951
              ],
              [
                103.7223951,
                1.1818823
              ],
              [
                103.7211895,
                1.1797253
              ],
              [
                103.7187148,
                1.1794716
              ],
              [
                103.7163036,
                1.18055
              ],
              [
                103.7150345,
                1.1841026
              ],
              [
                103.7159863,
                1.186323
              ],
              [
                103.7142731,
                1.1885434
              ],
              [
                103.7168112,
                1.1887972
              ],
              [
                103.7175092,
                1.1902563
              ],
              [
                103.7185245,
                1.1915885
              ],
              [
                103.7194763,
                1.192667
              ],
              [
                103.721824,
                1.1941895
              ],
              [
                103.72322,
                1.1934283
              ],
              [
                103.7242987,
                1.1924132
              ]
            ]
          ]
        ]
      }
    },
    {
      "type": "Feature",
      "properties": {
        "@id": "way/112430796",
        "name": "cyrene",
        "natural": "reef"
      },
      "geometry": {
        "type": "Polygon",
        "coordinates": [
          [
            [
              103.7581335,
              1.254862
            ],
            [
              103.7584983,
              1.2549263
            ],
            [
              103.7588523,
              1.2549907
            ],
            [
              103.7591849,
              1.2550229
            ],
            [
              103.7594531,
              1.2552052
            ],
            [
              103.7599359,
              1.2555377
            ],
            [
              103.760011,
              1.2558703
            ],
            [
              103.7598823,
              1.2563315
            ],
            [
              103.7596999,
              1.2567176
            ],
            [
              103.7593673,
              1.2571252
            ],
            [
              103.758627,
              1.2575328
            ],
            [
              103.7584124,
              1.2577259
            ],
            [
              103.7585841,
              1.2579297
            ],
            [
              103.7583803,
              1.2581764
            ],
            [
              103.7581013,
              1.2583909
            ],
            [
              103.7576936,
              1.2587342
            ],
            [
              103.7574683,
              1.2589701
            ],
            [
              103.7573396,
              1.2590774
            ],
            [
              103.7567924,
              1.2595601
            ],
            [
              103.7562345,
              1.2599355
            ],
            [
              103.7557731,
              1.260268
            ],
            [
              103.7552367,
              1.2605898
            ],
            [
              103.7546895,
              1.261051
            ],
            [
              103.7538741,
              1.2614801
            ],
            [
              103.7523721,
              1.2621666
            ],
            [
              103.7517713,
              1.2621773
            ],
            [
              103.7514602,
              1.2620164
            ],
            [
              103.751149,
              1.2618233
            ],
            [
              103.7507842,
              1.2615873
            ],
            [
              103.7496041,
              1.2609116
            ],
            [
              103.7493144,
              1.2606649
            ],
            [
              103.749132,
              1.2604396
            ],
            [
              103.7490891,
              1.2601822
            ],
            [
              103.7493144,
              1.2599784
            ],
            [
              103.7497328,
              1.2596888
            ],
            [
              103.7502478,
              1.2592597
            ],
            [
              103.7505804,
              1.2588736
            ],
            [
              103.7508272,
              1.2585625
            ],
            [
              103.7513743,
              1.2583158
            ],
            [
              103.7517498,
              1.2582193
            ],
            [
              103.7523936,
              1.2578975
            ],
            [
              103.7530158,
              1.2576186
            ],
            [
              103.7535416,
              1.2573505
            ],
            [
              103.7553869,
              1.2564387
            ],
            [
              103.755977,
              1.2559775
            ],
            [
              103.7564598,
              1.2556235
            ],
            [
              103.7568353,
              1.255409
            ],
            [
              103.7574254,
              1.2550765
            ],
            [
              103.7581335,
              1.254862
            ]
          ]
        ]
      },
      "id": "way/112430796"
    },
    {
      "type": "Feature",
      "properties": {
        "@id": "way/260983004",
        "name": "bbbesar",
        "natural": "reef",
        "source": "Bing",
        "subsea": "coral_reef"
      },
      "geometry": {
        "type": "Polygon",
        "coordinates": [
          [
            [
              103.7471155,
              1.2104674
            ],
            [
              103.7460856,
              1.2105961
            ],
            [
              103.7445127,
              1.2105875
            ],
            [
              103.7436823,
              1.2094805
            ],
            [
              103.744369,
              1.2078072
            ],
            [
              103.7452702,
              1.2044606
            ],
            [
              103.7462572,
              1.2033021
            ],
            [
              103.7484888,
              1.2020149
            ],
            [
              103.7502205,
              1.2011053
            ],
            [
              103.750478,
              1.2028645
            ],
            [
              103.7497763,
              1.2062197
            ],
            [
              103.7497055,
              1.208528
            ],
            [
              103.7491905,
              1.209472
            ],
            [
              103.7485468,
              1.2098581
            ],
            [
              103.7471155,
              1.2104674
            ]
          ]
        ]
      },
      "id": "way/260983004"
    },
    {
      "type": "Feature",
      "properties": {
        "@id": "way/260983007",
        "name": "tbemban",
        "natural": "reef",
        "source": "Bing"
      },
      "geometry": {
        "type": "Polygon",
        "coordinates": [
          [
            [
              103.7425665,
              1.2109393
            ],
            [
              103.7407791,
              1.2121321
            ],
            [
              103.7396912,
              1.212441
            ],
            [
              103.7390196,
              1.2122608
            ],
            [
              103.7391333,
              1.2111539
            ],
            [
              103.7401203,
              1.2102099
            ],
            [
              103.7408499,
              1.2086653
            ],
            [
              103.7416653,
              1.2075069
            ],
            [
              103.7420515,
              1.2070778
            ],
            [
              103.7427961,
              1.2064686
            ],
            [
              103.7432532,
              1.2069062
            ],
            [
              103.7428819,
              1.2082706
            ],
            [
              103.7425236,
              1.2096093
            ],
            [
              103.7426244,
              1.2101585
            ],
            [
              103.7425665,
              1.2109393
            ]
          ]
        ]
      },
      "id": "way/260983007"
    },
    {
      "type": "Feature",
      "properties": {
        "@id": "way/260983021",
        "name": "tsemakau",
        "natural": "reef",
        "source": "Bing",
        "subsea": "coral_reef"
      },
      "geometry": {
        "type": "Polygon",
        "coordinates": [
          [
            [
              103.7714822,
              1.2129521
            ],
            [
              103.7711871,
              1.2130417
            ],
            [
              103.769965,
              1.2136199
            ],
            [
              103.7675429,
              1.2145273
            ],
            [
              103.7664182,
              1.2149694
            ],
            [
              103.7657521,
              1.2149743
            ],
            [
              103.765459,
              1.214678
            ],
            [
              103.7657837,
              1.2136424
            ],
            [
              103.7665183,
              1.212258
            ],
            [
              103.7675617,
              1.2110325
            ],
            [
              103.768142,
              1.2103329
            ],
            [
              103.7686268,
              1.2096361
            ],
            [
              103.769002,
              1.2094041
            ],
            [
              103.769158,
              1.2092017
            ],
            [
              103.7694465,
              1.2090429
            ],
            [
              103.7696993,
              1.2091681
            ],
            [
              103.7703102,
              1.2102497
            ],
            [
              103.7714391,
              1.2121414
            ],
            [
              103.7716421,
              1.212577
            ],
            [
              103.7714822,
              1.2129521
            ]
          ]
        ]
      },
      "id": "way/260983021"
    },
    {
      "type": "Feature",
      "properties": {
        "@id": "way/260983023",
        "name": "traya",
        "natural": "reef",
        "source": "Bing",
        "subsea": "coral_reef"
      },
      "geometry": {
        "type": "Polygon",
        "coordinates": [
          [
            [
              103.7554411,
              1.21656
            ],
            [
              103.7553281,
              1.2169662
            ],
            [
              103.7552208,
              1.2171432
            ],
            [
              103.7537191,
              1.2170588
            ],
            [
              103.7521249,
              1.2165353
            ],
            [
              103.7507784,
              1.2157791
            ],
            [
              103.7500874,
              1.2153533
            ],
            [
              103.7494808,
              1.2149979
            ],
            [
              103.7491433,
              1.2146078
            ],
            [
              103.748998,
              1.2143811
            ],
            [
              103.7490302,
              1.2140003
            ],
            [
              103.7495135,
              1.2133152
            ],
            [
              103.7497598,
              1.2127024
            ],
            [
              103.7504093,
              1.2120656
            ],
            [
              103.7510633,
              1.2116513
            ],
            [
              103.7516806,
              1.2114006
            ],
            [
              103.7525282,
              1.2109394
            ],
            [
              103.7530106,
              1.210836
            ],
            [
              103.7535685,
              1.2110077
            ],
            [
              103.7542073,
              1.2113094
            ],
            [
              103.7551568,
              1.2120978
            ],
            [
              103.7554622,
              1.2124986
            ],
            [
              103.755666,
              1.2129384
            ],
            [
              103.7557511,
              1.2134836
            ],
            [
              103.7556986,
              1.2147312
            ],
            [
              103.7555497,
              1.2158464
            ],
            [
              103.7554411,
              1.21656
            ]
          ]
        ]
      },
      "id": "way/260983023"
    },
    {
      "type": "Feature",
      "properties": {
        "@id": "way/718032077",
        "natural": "reef",
        "source": "Maxar",
        "name": "jong"
      },
      "geometry": {
        "type": "Polygon",
        "coordinates": [
          [
            [
              103.7868017,
              1.2159281
            ],
            [
              103.7862438,
              1.2159174
            ],
            [
              103.7858469,
              1.2157672
            ],
            [
              103.7857718,
              1.215424
            ],
            [
              103.7858791,
              1.2149627
            ],
            [
              103.7865335,
              1.2145873
            ],
            [
              103.7875528,
              1.2139973
            ],
            [
              103.7883252,
              1.2131929
            ],
            [
              103.7885398,
              1.2129354
            ],
            [
              103.7893123,
              1.2132143
            ],
            [
              103.7895269,
              1.2136112
            ],
            [
              103.7893016,
              1.2142655
            ],
            [
              103.7887758,
              1.2146838
            ],
            [
              103.7877351,
              1.215542
            ],
            [
              103.7868017,
              1.2159281
            ]
          ]
        ]
      },
      "id": "way/718032077"
    },
    {
      "type": "Feature",
      "properties": {
        "@id": "way/718032100",
        "natural": "reef",
        "name": "Terumbu Buran"
      },
      "geometry": {
        "type": "Polygon",
        "coordinates": [
          [
            [
              103.844854,
              1.2379634
            ],
            [
              103.845441,
              1.2374342
            ],
            [
              103.8457971,
              1.2375978
            ],
            [
              103.846259,
              1.2375497
            ],
            [
              103.8464226,
              1.2377517
            ],
            [
              103.8467786,
              1.2377132
            ],
            [
              103.846846,
              1.2380403
            ],
            [
              103.8472598,
              1.2382424
            ],
            [
              103.8478276,
              1.2383771
            ],
            [
              103.8481163,
              1.2387042
            ],
            [
              103.8487129,
              1.2389447
            ],
            [
              103.8491267,
              1.239445
            ],
            [
              103.8493288,
              1.2401858
            ],
            [
              103.8490594,
              1.2406573
            ],
            [
              103.8486263,
              1.2408305
            ],
            [
              103.8480778,
              1.2406284
            ],
            [
              103.8476544,
              1.24008
            ],
            [
              103.8470866,
              1.2393584
            ],
            [
              103.8470096,
              1.2398876
            ],
            [
              103.8476447,
              1.2407727
            ],
            [
              103.8475485,
              1.2414077
            ],
            [
              103.8470096,
              1.241273
            ],
            [
              103.8464418,
              1.2407824
            ],
            [
              103.8460184,
              1.2404071
            ],
            [
              103.8459125,
              1.2402628
            ],
            [
              103.8456527,
              1.239801
            ],
            [
              103.8452678,
              1.2394162
            ],
            [
              103.8450176,
              1.2392237
            ],
            [
              103.8448828,
              1.2389736
            ],
            [
              103.8446423,
              1.2388389
            ],
            [
              103.844469,
              1.2385214
            ],
            [
              103.8445941,
              1.2382039
            ],
            [
              103.844854,
              1.2379634
            ]
          ]
        ]
      },
      "id": "way/718032100"
    },
    {
      "type": "Feature",
      "properties": {
        "@id": "way/795846909",
        "name": "Terumbu Renggis",
        "name:ms": "Terumbu Renggis",
        "natural": "reef",
        "old_name": "Pulau Renggis",
        "subsea": "reef"
      },
      "geometry": {
        "type": "Polygon",
        "coordinates": [
          [
            [
              103.8141926,
              1.259436
            ],
            [
              103.8147221,
              1.2595141
            ],
            [
              103.814908,
              1.2597242
            ],
            [
              103.8149372,
              1.259889
            ],
            [
              103.8147393,
              1.2600945
            ],
            [
              103.8145084,
              1.2601969
            ],
            [
              103.813881,
              1.2601561
            ],
            [
              103.8135103,
              1.2600822
            ],
            [
              103.813337,
              1.2599807
            ],
            [
              103.813175,
              1.2597837
            ],
            [
              103.8131441,
              1.2595983
            ],
            [
              103.8132255,
              1.2594955
            ],
            [
              103.813316,
              1.2594433
            ],
            [
              103.81346,
              1.2594099
            ],
            [
              103.8141926,
              1.259436
            ]
          ]
        ]
      },
      "id": "way/795846909"
    },
    {
      "type": "Feature",
      "properties": {
        "@id": "way/1254229676",
        "natural": "reef",
        "source": "Bing",
        "name": "Terumbu Bukom"
      },
      "geometry": {
        "type": "Polygon",
        "coordinates": [
          [
            [
              103.7771298,
              1.2211419
            ],
            [
              103.7770203,
              1.2211784
            ],
            [
              103.7769136,
              1.2211812
            ],
            [
              103.7768181,
              1.221052
            ],
            [
              103.7767647,
              1.2209341
            ],
            [
              103.7767816,
              1.2208583
            ],
            [
              103.7768153,
              1.2207656
            ],
            [
              103.7768153,
              1.2206898
            ],
            [
              103.7768349,
              1.2206421
            ],
            [
              103.7769922,
              1.2206364
            ],
            [
              103.7771242,
              1.2206505
            ],
            [
              103.7771972,
              1.220628
            ],
            [
              103.777304,
              1.2205719
            ],
            [
              103.7774247,
              1.2204932
            ],
            [
              103.7775764,
              1.2204455
            ],
            [
              103.7776887,
              1.2204202
            ],
            [
              103.7777816,
              1.2203178
            ],
            [
              103.7778331,
              1.2202277
            ],
            [
              103.7779877,
              1.2201461
            ],
            [
              103.7781036,
              1.2200088
            ],
            [
              103.7782452,
              1.2198715
            ],
            [
              103.7784341,
              1.2198157
            ],
            [
              103.7785114,
              1.2197427
            ],
            [
              103.7785114,
              1.2196741
            ],
            [
              103.7784384,
              1.2196226
            ],
            [
              103.7784298,
              1.2195496
            ],
            [
              103.7784856,
              1.2194981
            ],
            [
              103.7785886,
              1.2195668
            ],
            [
              103.7786444,
              1.2195067
            ],
            [
              103.7786916,
              1.219438
            ],
            [
              103.7787947,
              1.2193865
            ],
            [
              103.7789191,
              1.2193994
            ],
            [
              103.7790093,
              1.2194638
            ],
            [
              103.7791166,
              1.219438
            ],
            [
              103.7792325,
              1.2193822
            ],
            [
              103.7793484,
              1.2193994
            ],
            [
              103.7794128,
              1.2194552
            ],
            [
              103.7794968,
              1.2195228
            ],
            [
              103.7795906,
              1.219543
            ],
            [
              103.7796604,
              1.2194971
            ],
            [
              103.7797468,
              1.2194622
            ],
            [
              103.7798019,
              1.2194842
            ],
            [
              103.779857,
              1.2194787
            ],
            [
              103.7798882,
              1.2194254
            ],
            [
              103.7799972,
              1.2193936
            ],
            [
              103.7801239,
              1.2193668
            ],
            [
              103.7802093,
              1.2193351
            ],
            [
              103.7802922,
              1.2193643
            ],
            [
              103.7803214,
              1.2194399
            ],
            [
              103.7803336,
              1.2195106
            ],
            [
              103.7804287,
              1.2195496
            ],
            [
              103.780536,
              1.2195959
            ],
            [
              103.7805409,
              1.2196568
            ],
            [
              103.7805189,
              1.2197422
            ],
            [
              103.7805458,
              1.2197739
            ],
            [
              103.7805555,
              1.219847
            ],
            [
              103.7804824,
              1.2199615
            ],
            [
              103.7802995,
              1.2200298
            ],
            [
              103.7801581,
              1.2201005
            ],
            [
              103.7801191,
              1.2201517
            ],
            [
              103.7800435,
              1.2201468
            ],
            [
              103.7799557,
              1.2201883
            ],
            [
              103.779924,
              1.2202419
            ],
            [
              103.7798192,
              1.2203272
            ],
            [
              103.7796973,
              1.2203443
            ],
            [
              103.7796095,
              1.2203394
            ],
            [
              103.7795485,
              1.2204101
            ],
            [
              103.7794339,
              1.2204515
            ],
            [
              103.779373,
              1.2204564
            ],
            [
              103.7792438,
              1.2204978
            ],
            [
              103.7791657,
              1.220532
            ],
            [
              103.7790609,
              1.2205856
            ],
            [
              103.7789926,
              1.2206295
            ],
            [
              103.7789,
              1.2206514
            ],
            [
              103.7788756,
              1.2206685
            ],
            [
              103.7789097,
              1.2207392
            ],
            [
              103.7789,
              1.2207611
            ],
            [
              103.7788683,
              1.2207611
            ],
            [
              103.7788073,
              1.2207392
            ],
            [
              103.7787464,
              1.2207684
            ],
            [
              103.7786854,
              1.2207904
            ],
            [
              103.778622,
              1.2207806
            ],
            [
              103.7785586,
              1.2207855
            ],
            [
              103.778505,
              1.2208147
            ],
            [
              103.7784903,
              1.2208659
            ],
            [
              103.7784538,
              1.2208805
            ],
            [
              103.7784245,
              1.2208732
            ],
            [
              103.7784708,
              1.220822
            ],
            [
              103.7784245,
              1.2208074
            ],
            [
              103.7783489,
              1.2207952
            ],
            [
              103.7782343,
              1.2208318
            ],
            [
              103.7782026,
              1.2208708
            ],
            [
              103.7781441,
              1.2208635
            ],
            [
              103.7781246,
              1.2208367
            ],
            [
              103.7780807,
              1.2208172
            ],
            [
              103.7780246,
              1.220861
            ],
            [
              103.7779881,
              1.2208562
            ],
            [
              103.777893,
              1.2208903
            ],
            [
              103.7778345,
              1.2208854
            ],
            [
              103.7777589,
              1.2209464
            ],
            [
              103.7776809,
              1.2209927
            ],
            [
              103.777598,
              1.2210317
            ],
            [
              103.7775443,
              1.2210292
            ],
            [
              103.7774907,
              1.2209976
            ],
            [
              103.7774663,
              1.2209976
            ],
            [
              103.7774322,
              1.2210219
            ],
            [
              103.7773858,
              1.2210171
            ],
            [
              103.7773298,
              1.2210512
            ],
            [
              103.7773224,
              1.2210926
            ],
            [
              103.7772688,
              1.221117
            ],
            [
              103.7772225,
              1.2211438
            ],
            [
              103.7771859,
              1.2211267
            ],
            [
              103.7772298,
              1.221078
            ],
            [
              103.7771786,
              1.221078
            ],
            [
              103.7771493,
              1.2211121
            ],
            [
              103.7771298,
              1.2211419
            ]
          ]
        ]
      },
      "id": "way/1254229676"
    },
    {
      "type": "Feature",
      "properties": {
        "@id": "way/1254229677",
        "natural": "reef",
        "source": "Bing",
        "name": "Terumbu Jambi"
      },
      "geometry": {
        "type": "MultiPolygon",
        "coordinates": [
          [
            [
              [
                103.7948203,
                1.202348
              ],
              [
                103.7946844,
                1.2022606
              ],
              [
                103.7947168,
                1.2021345
              ],
              [
                103.7948009,
                1.2020278
              ],
              [
                103.7949529,
                1.2019501
              ],
              [
                103.7951438,
                1.2017593
              ],
              [
                103.7951956,
                1.2017819
              ],
              [
                103.7955191,
                1.2015458
              ],
              [
                103.7955773,
                1.2015426
              ],
              [
                103.7958555,
                1.2012903
              ],
              [
                103.7961079,
                1.2012192
              ],
              [
                103.796357,
                1.2010898
              ],
              [
                103.7964929,
                1.2010542
              ],
              [
                103.796674,
                1.2009927
              ],
              [
                103.7969975,
                1.2009604
              ],
              [
                103.7971519,
                1.2010718
              ],
              [
                103.7968662,
                1.2013378
              ],
              [
                103.7967099,
                1.2015214
              ],
              [
                103.7965148,
                1.2017119
              ],
              [
                103.7965316,
                1.2018117
              ],
              [
                103.7964411,
                1.2019113
              ],
              [
                103.7962017,
                1.2019954
              ],
              [
                103.7959752,
                1.202031
              ],
              [
                103.7957488,
                1.2021507
              ],
              [
                103.7952344,
                1.2023544
              ],
              [
                103.7948203,
                1.202348
              ]
            ]
          ],
          [
            [
              [
                103.7939015,
                1.2033006
              ],
              [
                103.7937114,
                1.2031889
              ],
              [
                103.7936257,
                1.2029988
              ],
              [
                103.7936108,
                1.2028237
              ],
              [
                103.7937151,
                1.202589
              ],
              [
                103.7938046,
                1.20244
              ],
              [
                103.7939387,
                1.2023841
              ],
              [
                103.7940505,
                1.2023282
              ],
              [
                103.7942704,
                1.2023469
              ],
              [
                103.7944791,
                1.2023692
              ],
              [
                103.7945089,
                1.202481
              ],
              [
                103.7946505,
                1.2026151
              ],
              [
                103.794643,
                1.2027567
              ],
              [
                103.7945983,
                1.2028796
              ],
              [
                103.7945611,
                1.2029988
              ],
              [
                103.7943561,
                1.2032149
              ],
              [
                103.7939015,
                1.2033006
              ]
            ]
          ]
        ]
      }
    },
    
    {
      "type": "Feature",
      "properties": {
        "@id": "relation/7192520",
        "name": "Terumbu Pempang Kecil",
        "natural": "reef",
        "type": "multipolygon"
      },
      "geometry": {
        "type": "MultiPolygon",
        "coordinates": [
          [
            [
              [
                103.7434677,
                1.2277584
              ],
              [
                103.7427811,
                1.2270719
              ],
              [
                103.7420944,
                1.2261708
              ],
              [
                103.741322,
                1.2259563
              ],
              [
                103.7405924,
                1.2251411
              ],
              [
                103.7403778,
                1.2245404
              ],
              [
                103.7415365,
                1.2243688
              ],
              [
                103.7422811,
                1.2248751
              ],
              [
                103.7429678,
                1.2257332
              ],
              [
                103.7435257,
                1.2266771
              ],
              [
                103.7434677,
                1.2277584
              ]
            ]
          ],
          [
            [
              [
                103.7400041,
                1.2281644
              ],
              [
                103.7397131,
                1.2278589
              ],
              [
                103.7396403,
                1.227437
              ],
              [
                103.7400478,
                1.2273061
              ],
              [
                103.7405862,
                1.2273642
              ],
              [
                103.74095,
                1.2277279
              ],
              [
                103.7408481,
                1.2281644
              ],
              [
                103.7400041,
                1.2281644
              ]
            ]
          ]
        ]
      }
    },
    {
      "type": "Feature",
      "properties": {
        "@id": "relation/7192520",
        "name": "Terumbu Pempang Darat",
        "natural": "reef",
        "type": "multipolygon"
      },
      "geometry": {
        "type": "Polygon",
        "coordinates": [
          [
            [
              103.7384037,
              1.2283161
            ],
            [
              103.7368159,
              1.2288739
            ],
            [
              103.7350992,
              1.2291742
            ],
            [
              103.734256,
              1.2289511
            ],
            [
              103.7334406,
              1.2277498
            ],
            [
              103.7331251,
              1.2259563
            ],
            [
              103.7329256,
              1.2251325
            ],
            [
              103.733683,
              1.2249266
            ],
            [
              103.7351851,
              1.2247121
            ],
            [
              103.7365584,
              1.2247121
            ],
            [
              103.7378179,
              1.2250467
            ],
            [
              103.7385475,
              1.225819
            ],
            [
              103.7386333,
              1.2271062
            ],
            [
              103.7384037,
              1.2283161
            ]
          ]
        ]
      }
    },
    {
      "type": "Feature",
      "properties": {
        "@id": "relation/7192520",
        "name": "tpt",
        "natural": "reef",
        "type": "multipolygon"
      },
      "geometry": {
        "type": "MultiPolygon",
        "coordinates": [
          [
            [
              [
                103.7329964,
                1.2302898
              ],
              [
                103.7317518,
                1.2313624
              ],
              [
                103.7309794,
                1.2311908
              ],
              [
                103.7304215,
                1.2303756
              ],
              [
                103.7297069,
                1.2298092
              ],
              [
                103.7288486,
                1.2292086
              ],
              [
                103.7283186,
                1.2283161
              ],
              [
                103.7282328,
                1.2273722
              ],
              [
                103.7287907,
                1.2263854
              ],
              [
                103.7296061,
                1.225656
              ],
              [
                103.7307648,
                1.2253127
              ],
              [
                103.7317669,
                1.2256474
              ],
              [
                103.7320673,
                1.2263339
              ],
              [
                103.7324385,
                1.2274151
              ],
              [
                103.7331251,
                1.2287881
              ],
              [
                103.7335114,
                1.2296891
              ],
              [
                103.7329964,
                1.2302898
              ]
            ]
          ],
          [
            [
              [
                103.7326531,
                1.2318344
              ],
              [
                103.7330393,
                1.2309334
              ],
              [
                103.7338547,
                1.2302898
              ],
              [
                103.7344276,
                1.2304528
              ],
              [
                103.7340264,
                1.2310192
              ],
              [
                103.7334685,
                1.231534
              ],
              [
                103.7326531,
                1.2318344
              ]
            ]
          ]
        ]
      }
    },
    {
      "type": "Feature",
      "properties": {
        "@id": "relation/7192520",
        "name": "tpl",
        "natural": "reef",
        "type": "multipolygon"
      },
      "geometry": {
        "type": "Polygon",
        "coordinates": [
          [
            [
              103.7223601,
              1.2340864
            ],
            [
              103.7210934,
              1.2332307
            ],
            [
              103.7206484,
              1.2321013
            ],
            [
              103.7198952,
              1.2314852
            ],
            [
              103.7194502,
              1.2308007
            ],
            [
              103.719724,
              1.229945
            ],
            [
              103.7215727,
              1.2298081
            ],
            [
              103.7228736,
              1.2300819
            ],
            [
              103.7242772,
              1.229945
            ],
            [
              103.7263313,
              1.230698
            ],
            [
              103.7279061,
              1.231451
            ],
            [
              103.7283511,
              1.2329569
            ],
            [
              103.7281115,
              1.2337099
            ],
            [
              103.7269475,
              1.2339837
            ],
            [
              103.7251673,
              1.2345314
            ],
            [
              103.723216,
              1.2345998
            ],
            [
              103.7223601,
              1.2340864
            ]
          ]
        ]
      }
    },
    {
      "type": "Feature",
      "properties": {
        "@id": "relation/7192520",
        "name": "hantu",
        "natural": "reef",
        "type": "multipolygon"
      },
      "geometry": {
        "type": "MultiPolygon",
        "coordinates": [
          [
            [
              [
                103.7470447,
                1.2261933
              ],
              [
                103.7466726,
                1.2251776
              ],
              [
                103.7463721,
                1.2247627
              ],
              [
                103.7462004,
                1.2244623
              ],
              [
                103.7462004,
                1.224119
              ],
              [
                103.7466011,
                1.2237899
              ],
              [
                103.7471591,
                1.2238328
              ],
              [
                103.7476743,
                1.2233607
              ],
              [
                103.7480177,
                1.22286
              ],
              [
                103.7488333,
                1.2224309
              ],
              [
                103.7502356,
                1.2226741
              ],
              [
                103.7506649,
                1.2229459
              ],
              [
                103.7529686,
                1.2232606
              ],
              [
                103.753956,
                1.2237184
              ],
              [
                103.7550292,
                1.2240045
              ],
              [
                103.7552581,
                1.2243335
              ],
              [
                103.7550435,
                1.2246054
              ],
              [
                103.7540847,
                1.2250918
              ],
              [
                103.7529686,
                1.2259072
              ],
              [
                103.7515423,
                1.226998
              ],
              [
                103.7496056,
                1.2279274
              ],
              [
                103.7485017,
                1.2284889
              ],
              [
                103.7471266,
                1.2288955
              ],
              [
                103.7460614,
                1.2286438
              ],
              [
                103.7460227,
                1.2280629
              ],
              [
                103.7467005,
                1.2275982
              ],
              [
                103.7470298,
                1.2268818
              ],
              [
                103.7470447,
                1.2261933
              ]
            ]
          ],
          [
            [
              [
                103.7459568,
                1.2273293
              ],
              [
                103.7451135,
                1.2270204
              ],
              [
                103.7450556,
                1.2260421
              ],
              [
                103.7454418,
                1.2256131
              ],
              [
                103.7460148,
                1.2257332
              ],
              [
                103.7462143,
                1.2263425
              ],
              [
                103.7462143,
                1.2268144
              ],
              [
                103.7459568,
                1.2273293
              ]
            ]
          ]
        ]
      }
    },
    {
      "type": "Feature",
      "properties": {
        "name": "sji"
      },
      "geometry": {
        "type": "Polygon",
        "coordinates": [
          [
            [
              103.8458043,
              1.2235025
            ],
            [
              103.8484321,
              1.2224424
            ],
            [
              103.8498613,
              1.2218893
            ],
            [
              103.8511752,
              1.2211288
            ],
            [
              103.8520051,
              1.2204835
            ],
            [
              103.8518437,
              1.2173492
            ],
            [
              103.8522817,
              1.2143532
            ],
            [
              103.8519129,
              1.2129474
            ],
            [
              103.8508295,
              1.2134775
            ],
            [
              103.8507373,
              1.2140306
            ],
            [
              103.8490545,
              1.2147681
            ],
            [
              103.8484782,
              1.2156208
            ],
            [
              103.8478098,
              1.216727
            ],
            [
              103.8455507,
              1.2193773
            ],
            [
              103.8427154,
              1.2220506
            ],
            [
              103.8431073,
              1.2230185
            ],
            [
              103.843868,
              1.2229724
            ],
            [
              103.8447595,
              1.2235777
            ],
            [
              103.8458043,
              1.2235025
            ]
          ]
        ]
      }
    },
    {
      "type": "Feature",
      "properties": {
        "name": "kusu"
      },
      "geometry": {
        "type": "Polygon",
        "coordinates": [
          [
            [
              103.857683,
              1.2251516
            ],
            [
              103.8581963,
              1.2240785
            ],
            [
              103.8593863,
              1.223122
            ],
            [
              103.8598763,
              1.2227254
            ],
            [
              103.8609963,
              1.2209292
            ],
            [
              103.862093,
              1.2206259
            ],
            [
              103.862793,
              1.221699
            ],
            [
              103.8628863,
              1.2222589
            ],
            [
              103.862303,
              1.2238918
            ],
            [
              103.861813,
              1.2247083
            ],
            [
              103.8599463,
              1.2255948
            ],
            [
              103.857963,
              1.2255948
            ],
            [
              103.857683,
              1.2251516
            ]
          ]
        ]
      }
    },
    {
      "type": "Feature",
      "properties": {
        "name": "lazarus"
      },
      "geometry": {
        "type": "Polygon",
        "coordinates": [
          [
            [
              103.8568025,
              1.2175841
            ],
            [
              103.8540573,
              1.2205092
            ],
            [
              103.8521791,
              1.2224232
            ],
            [
              103.8514567,
              1.2239038
            ],
            [
              103.8498312,
              1.2256011
            ],
            [
              103.8466165,
              1.2258539
            ],
            [
              103.8461108,
              1.2272983
            ],
            [
              103.8485309,
              1.2291401
            ],
            [
              103.8505536,
              1.2319929
            ],
            [
              103.8583918,
              1.2325346
            ],
            [
              103.8589697,
              1.2312346
            ],
            [
              103.8578139,
              1.2290678
            ],
            [
              103.8555022,
              1.2282373
            ],
            [
              103.8561523,
              1.2254566
            ],
            [
              103.8564052,
              1.2237232
            ],
            [
              103.8586808,
              1.2217009
            ],
            [
              103.8600533,
              1.2198231
            ],
            [
              103.8594032,
              1.2183064
            ],
            [
              103.8583196,
              1.2175841
            ],
            [
              103.8568025,
              1.2175841
            ]
          ]
        ]
      }
    },
    {
      "type": "Feature",
      "properties": {
        "name": "Pulau Tekukor"
      },
      "geometry": {
        "type": "Polygon",
        "coordinates": [
          [
            [
              103.8363878,
              1.2337444
            ],
            [
              103.8372051,
              1.232901
            ],
            [
              103.8381806,
              1.2308187
            ],
            [
              103.8394461,
              1.2302124
            ],
            [
              103.8399733,
              1.2285255
            ],
            [
              103.8392351,
              1.2281038
            ],
            [
              103.8374424,
              1.2296853
            ],
            [
              103.8362296,
              1.2313722
            ],
            [
              103.8359396,
              1.2334808
            ],
            [
              103.8363878,
              1.2337444
            ]
          ]
        ]
      }
    },
    {
      "type": "Feature",
      "properties": {
        "name": "Tanjung Rimau"
      },
      "geometry": {
        "type": "Polygon",
        "coordinates": [
          [
            [
              103.8089549,
              1.2601488
            ],
            [
              103.8081766,
              1.2602947
            ],
            [
              103.8068632,
              1.2603677
            ],
            [
              103.8061092,
              1.2599543
            ],
            [
              103.8063281,
              1.2588114
            ],
            [
              103.8077631,
              1.2577658
            ],
            [
              103.8086387,
              1.2573038
            ],
            [
              103.8069848,
              1.2588844
            ],
            [
              103.80662,
              1.2596625
            ],
            [
              103.8069848,
              1.2600029
            ],
            [
              103.8080063,
              1.2598084
            ],
            [
              103.8085414,
              1.2598813
            ],
            [
              103.8089549,
              1.2601488
            ]
          ]
        ]
      }
    },
    {
      "type": "Feature",
      "properties": {
        "@id": "relation/9964062",
        "natural": "reef",
        "type": "multipolygon",
        "name": "semakau"
      },
      "geometry": {
        "type": "Polygon",
        "coordinates": [
          [
            [
              103.7540024,
              1.2088601
            ],
            [
              103.7542209,
              1.2064511
            ],
            [
              103.7543085,
              1.2056819
            ],
            [
              103.7543682,
              1.2043748
            ],
            [
              103.7550447,
              1.2027619
            ],
            [
              103.7557991,
              1.2012499
            ],
            [
              103.7568144,
              1.1997838
            ],
            [
              103.7579731,
              1.1983679
            ],
            [
              103.7589752,
              1.1978874
            ],
            [
              103.760385,
              1.1984301
            ],
            [
              103.7603084,
              1.1984971
            ],
            [
              103.7601895,
              1.1987095
            ],
            [
              103.76007391244607,
              1.1989978567388904
            ],
            [
              103.7617678078921,
              1.2014365564506313
            ],
            [
              103.7618136,
              1.2014423
            ],
            [
              103.7620389,
              1.2015684
            ],
            [
              103.7622884,
              1.2017507
            ],
            [
              103.7623809,
              1.2018808
            ],
            [
              103.7625003,
              1.2021489
            ],
            [
              103.7626143,
              1.2024426
            ],
            [
              103.7626947,
              1.2025928
            ],
            [
              103.7627739,
              1.2027362
            ],
            [
              103.7627913,
              1.202814
            ],
            [
              103.7628691,
              1.2029213
            ],
            [
              103.7629375,
              1.2028904
            ],
            [
              103.7629965,
              1.2028931
            ],
            [
              103.7629628,
              1.2030293
            ],
            [
              103.7629263,
              1.2031498
            ],
            [
              103.76284485637474,
              1.2031160856713699
            ],
            [
              103.7621805,
              1.2073361
            ],
            [
              103.76356876221746,
              1.2080944578437538
            ],
            [
              103.7652314,
              1.2087793
            ],
            [
              103.7654847,
              1.2088628
            ],
            [
              103.7658607,
              1.2089352
            ],
            [
              103.7661964,
              1.2089653
            ],
            [
              103.7666408,
              1.2089437
            ],
            [
              103.7671541,
              1.2088717
            ],
            [
              103.7673268,
              1.2088308
            ],
            [
              103.7673854,
              1.2088061
            ],
            [
              103.7676138,
              1.2086863
            ],
            [
              103.7678082,
              1.2092977
            ],
            [
              103.7677189,
              1.2094822
            ],
            [
              103.7672738,
              1.2101207
            ],
            [
              103.766928,
              1.210322
            ],
            [
              103.7660755,
              1.2115591
            ],
            [
              103.7655376,
              1.2126203
            ],
            [
              103.7651742,
              1.213324
            ],
            [
              103.7648286,
              1.2137115
            ],
            [
              103.7643675,
              1.2146721
            ],
            [
              103.763974,
              1.215257
            ],
            [
              103.7634369,
              1.2158219
            ],
            [
              103.7625006,
              1.2164751
            ],
            [
              103.7619192,
              1.216723
            ],
            [
              103.7610319,
              1.216695
            ],
            [
              103.760761,
              1.2168444
            ],
            [
              103.7605147,
              1.2173037
            ],
            [
              103.7601697,
              1.2177137
            ],
            [
              103.7594861,
              1.2182451
            ],
            [
              103.7593464,
              1.2184907
            ],
            [
              103.7589818,
              1.2188894
            ],
            [
              103.7586595,
              1.2190201
            ],
            [
              103.7584494,
              1.2189828
            ],
            [
              103.7581121,
              1.2187082
            ],
            [
              103.7576337,
              1.2185174
            ],
            [
              103.757408,
              1.2183992
            ],
            [
              103.757234,
              1.2180353
            ],
            [
              103.75674,
              1.217663
            ],
            [
              103.756516,
              1.2173626
            ],
            [
              103.7563671,
              1.2170233
            ],
            [
              103.7564454,
              1.2164971
            ],
            [
              103.7566561,
              1.2162047
            ],
            [
              103.7567667,
              1.2145208
            ],
            [
              103.7567681,
              1.2127767
            ],
            [
              103.7565805,
              1.2121999
            ],
            [
              103.7557136,
              1.2110595
            ],
            [
              103.7541218,
              1.2094941
            ],
            [
              103.7540024,
              1.2088601
            ]
          ]
        ]
      }
    }
  ]
}